{"type":"Feature","properties":{"id":"africa"},"geometry":{"type":"MultiPolygon","coordinates":[[[[12.117909,34.705502],[11.60092,33.99875],[11.9972,34.54049],[12.067998450602518,34.799604329380294],[12.117909,34.705502]]],[[[11.502675,36.703668],[11.745257573476353,35.44161748518838],[11.50267,36.70367],[11.52232,36.91607],[11.33666,37.49818],[9.581700421492124,37.77473520603088],[11.600205421973087,37.77816683006445],[11.600163257108681,37.75755730267913],[11.502675,36.703668]]],[[[8.537157046550169,37.77295939663299],[8.574685152460612,37.28653321457746],[8.46483080507564,37.77283643609118],[8.537157046550169,37.77295939663299]]],[[[-1.967826,36.32171],[3.525989,37.76444],[7.7985208662165775,37.771703654552645],[6.899245,37.77017],[-2.27671,36.22302],[-2.2549550119982955,35.826013445818425],[-2.6945209904220935,35.860165607253094],[-2.2120168715862043,36.308985887150236],[-1.967826,36.32171]]],[[[-6.4031337083168145,35.985348577157346],[-6.755431,35.98487],[-9.635021,33.09155],[-13.55714,27.99441],[-13.560348998462963,27.990892474694764],[-12.47875,29.68803],[-13.65186,30.25648],[-15.53783,28.80727],[-18.24516,29.34705],[-18.92352,27.81183],[-16.70429,26.36117],[-14.318728698654455,27.159598905318195],[-17.09474,24.11669],[-18.1835,20.40373],[-17.329143477022022,20.494469666984376],[-16.764521594894163,16.08796202385224],[-19.85623,16.18127],[-19.16189,13.53543],[-17.15206,12.01511],[-16.935948179263374,12.108054065968476],[-16.57838060368603,10.212942328253876],[-16.85708,10.05681],[-14.98203,8.218501],[-14.629618208166661,8.385177689383225],[-12.599278538428585,5.77550850082837],[-14.95454,3.374408],[-7.24572,-0.681003],[-7.469571,3.84299],[-7.494428629685363,4.148131301500522],[-3.2234231836074736,4.861350959257679],[-3.807399,3.704056],[1.394038,3.983727],[1.313583409293749,5.900291076377067],[1.656523591523769,5.985670550814497],[1.656625,5.984817],[2.7211954906193543,6.138134781534763],[2.93751,4.19902],[7.54612,2.674022],[7.985406164273618,3.529917381490933],[8.178305,2.839256],[7.999844700342339,2.1125905180621216],[6.895195,2.440286],[5.273916,-0.525565],[6.3705855606356545,-0.5200818596386426],[5.165631,-1.392767],[5.656021,-1.792669],[7.427619427083152,-0.5147968902508898],[7.573603,-0.514067],[7.616248256803588,-0.37873698135199496],[7.7548280694029845,-0.27877794165777214],[10.07446,-5.995799],[11.030808493897222,-4.2135597134781335],[11.761193332403495,-5.11672453661239],[10.53848,-5.553536],[10.93824879630486,-17.21145859529989],[9.784615,-17.20905],[15.42755,-30.20686],[15.997057659032253,-29.34128798963859],[15.99606,-47.58493],[39.24259,-47.58493],[39.24259,-26.85341],[34.1926448031397,-26.85465951561089],[34.50233,-26.83091],[41.57289,-17.76241],[42.53489,-9.986206],[40.68919,-10.25734],[40.67300764768809,-10.267320417454998],[40.11769,-4.752853],[40.06920587239338,-4.7491546622031375],[41.97685,-2.038167],[41.76463043529065,-1.8074980172300668],[47.39665,-0.674373],[52.44871,10.68222],[51.30336199791114,12.51176680859272],[51.41247248045373,12.524578562187868],[51.41288,12.5236],[51.62645,12.54865],[52.17181,11.36768],[52.26949702027821,11.387335510858886],[66.722766,-14.903707],[64.47562838188722,-19.70479356990498],[64.66991,-19.2897],[58.75196,-9.183617],[53.54727,-10.55004],[56.87088,-22.2411],[63.836077836917255,-21.212530319428303],[53.525347,-46.437827],[44.63942,-57.08798],[-23.24536,-60.3167],[-23.245706947100953,-60.308828425678584],[-23.24401,-60.30883],[-23.247412890372527,-60.27012379545266],[-27.262032,30.814],[-15.514733,29.500826],[-9.86631729016438,35.70885690756304],[-9.615667812263553,35.98102406558698],[-9.412958781098387,35.981296939748724],[-8.389577,35.95769],[-8.363978383229592,35.982709011253924],[-6.4031337083168145,35.985348577157346]],[[-2.781278,-42.93581],[-3.064769,-16.61883],[-15.57026,-4.591221],[-14.87125,-43.83245],[-2.781278,-42.93581]],[[-21.39096,17.10605],[-25.94434,18.005],[-26.32379,14.00485],[-22.32233,14.2836],[-21.39096,17.10605]],[[56.11999,-21.72922],[56.11759,-20.58589],[54.94688,-20.59039],[54.98054,-21.72699],[56.11999,-21.72922]],[[48.85584215335668,-11.558157779496412],[43.53881,-16.06164],[42.30124,-22.72694],[44.24331,-26.5823],[48.11305,-25.31636],[51.14843,-14.90113],[49.60853549053382,-11.320714900250966],[57.57433,-8.807844],[55.98754,-3.17239],[45.9954,-3.803629],[45.68495,-12.55844],[48.85584215335668,-11.558157779496412]],[[42.80491,-12.969],[44.50029,-12.75265],[44.67399933901829,-12.559697192629615],[44.62646,-13.47243],[45.6784,-13.47243],[45.66192,-12.14406],[44.84214893345989,-12.372920036668628],[45.59661,-11.53488],[42.74981,-10.74181],[42.80491,-12.969]]],[[[44.20775,11.6786],[44.11873,11.8186],[43.46450600867113,11.735908952356368],[43.84568878292086,12.248008364916902],[44.20775,11.6786]]],[[[39.813119,18.162296],[41.24799118480121,15.9432262889972],[41.45437926824333,15.405728984398705],[41.1101,15.84126],[39.40519670056875,18.152937232672414],[39.62781,18.19372],[39.218434690423834,19.362848510758155],[39.39613845161271,19.05200110032066],[39.813119,18.162296]]],[[[34.741261,27.031591],[35.44017690986575,25.971946929353358],[35.99915049563215,24.994165196001244],[34.61655,27.21678],[34.56745718953152,27.498547510504235],[34.65653999709478,27.34271985744679],[34.741261,27.031591]]],[[[32.706293,33.975258],[34.05642786341738,31.61949689992909],[34.052015101902846,31.606420062658724],[33.45548,32.52518],[25.377658249903124,31.8004351586251],[25.27817,32.11399],[21.68181,33.57972],[11.677473891546846,33.37017081464088],[11.84913,33.99847],[11.60092,33.99875],[32.706293,33.975258]]],[[[0.510521,10.96883],[0.5101045682131932,10.967724060541661],[0.510437985398028,10.969200942031533],[0.510521,10.96883]]],[[[8.057832677174547,3.6710315866057246],[8.375062310639532,4.289114741133723],[8.655333887543824,4.05555509371348],[8.057832677174547,3.6710315866057246]]],[[[9.330052872001646,3.4270326354717735],[9.420774,3.340699],[9.44236274335827,3.1825446770441004],[9.330052872001646,3.4270326354717735]]],[[[37.149868592412815,22.0380476903734],[36.726403457167265,23.722021611004653],[37.57804881420373,22.23228525385163],[37.149868592412815,22.0380476903734]]]]}}
