{"type":"Feature","properties":{"id":"algeria"},"geometry":{"type":"Polygon","coordinates":[[[8.46483,37.77284],[8.574685152460612,37.28653321457746],[8.585684,37.14397],[8.644193,36.91998],[8.626317,36.8995],[8.620173,36.85281],[8.661358,36.84483],[8.657952,36.81655],[8.61986,36.80522],[8.612867,36.79745],[8.596138,36.80237],[8.554027,36.78372],[8.527336,36.78747],[8.484873,36.78446],[8.427186,36.76354],[8.427241,36.74414],[8.460879,36.74383],[8.461045,36.72413],[8.447088,36.66457],[8.401917,36.62118],[8.323456,36.57789],[8.197095,36.51407],[8.175728,36.51803],[8.148917,36.49811],[8.150578,36.47796],[8.166399,36.4599],[8.20783,36.44322],[8.262461,36.4337],[8.36915,36.42417],[8.402374,36.41394],[8.389001,36.39466],[8.371644,36.35121],[8.371955,36.31785],[8.352902,36.29171],[8.334438,36.26816],[8.335369,36.2605],[8.302447,36.1761],[8.305399,36.15831],[8.307076,36.07119],[8.292444,36.04239],[8.295184,36.0111],[8.258892,35.94037],[8.251717,35.91544],[8.248598,35.88608],[8.267889,35.82189],[8.253728,35.76264],[8.259912,35.72862],[8.305212,35.68742],[8.346066,35.61177],[8.355058,35.52549],[8.310899,35.41587],[8.307906,35.37315],[8.306889,35.31339],[8.332299,35.27522],[8.419304,35.17802],[8.35691,35.10593],[8.240397,34.92193],[8.279215,34.76554],[8.236812,34.6909],[8.156104,34.56931],[7.853326,34.40896],[7.513961,34.06745],[7.520699,33.79695],[7.744353,33.32611],[7.823638,33.18354],[8.302917,32.81729],[8.352738,32.49997],[9.045327,32.08187],[9.54598380107639,30.24059279205582],[9.377517,30.17837],[9.399669,30.05313],[9.6405,29.61884],[9.858723,28.78537],[9.742343,27.3032],[9.374405,26.18864],[10.18087,24.65477],[10.35516,24.51512],[11.562,24.11972],[11.944043719167672,23.555761045774194],[7.430048,20.89586],[5.796147,19.46513],[4.330227020707403,19.20540979244488],[4.330257,19.2074],[3.354559,19.0889],[3.247005,19.17404],[3.357131,19.44832],[3.296141,19.91195],[2.706217,20.18776],[2.479818,20.19181],[2.268787,20.39638],[1.841833,20.40048],[1.657937,20.66715],[1.281013,20.8367],[1.198687,21.20855],[-4.871857,25.09499],[-4.9767734335956355,25.09498941855224],[-6.745226,26.18917],[-8.686707573364783,27.33516760867437],[-8.704895,28.73125],[-7.808112,29.30222],[-7.260834,29.52022],[-7.164085,29.55997],[-5.801454,29.65445],[-4.951157,30.17883],[-4.351064,30.55732],[-3.685672,30.82409],[-3.581695,31.00371],[-3.829279,31.09642],[-3.78664,31.37812],[-3.678645,31.65858],[-3.001855,31.78111],[-2.923604,32.15453],[-1.898367,32.19292],[-1.498262,32.11748],[-1.20163,32.09188],[-1.184464,32.1294],[-1.313553,32.15876],[-1.259652,32.31818],[-1.221199,32.39649],[-1.071114,32.51137],[-1.418612,32.71998],[-1.58171,32.94564],[-1.685029,33.26281],[-1.742707,33.69807],[-1.659623,34.10328],[-1.715928,34.21578],[-1.722108,34.30771],[-1.795579,34.39388],[-1.694298,34.49142],[-1.745453,34.50161],[-1.793175,34.55945],[-1.799526,34.57627],[-1.859608,34.61612],[-1.819439,34.65877],[-1.774979,34.72553],[-1.744595,34.74359],[-1.815105,34.77542],[-1.892052,34.80267],[-1.896515,34.84015],[-1.977196,34.87551],[-1.977368,34.93112],[-2.043801,34.92084],[-2.087231,34.94927],[-2.097616,34.96018],[-2.107916,34.96805],[-2.16877,35.00244],[-2.195721,35.03098],[-2.22074,35.04732],[-2.215805,35.07005],[-2.214346,35.08494],[-2.27671,36.22302],[6.899245,37.77017],[8.46483,37.77284]]]}}
