{"type":"Feature","properties":{"id":"american-oceania"},"geometry":{"type":"MultiPolygon","coordinates":[[[[-171.8976,-15.85038],[-171.896112717584,-15.846923982203439],[-171.8475,-15.87838],[-170.5427,-12.6111],[-174.15381068475318,-11.011157016745608],[-168.23635258471202,-9.993851805474613],[-168.4661,-11.73139],[-168.1733,-12.03194],[-165.2008,-15.64639],[-166.64112854921183,-17.555260245739053],[-169.3297,-16.63667],[-171.3053,-16.84028],[-171.6367893211709,-16.562602765818447],[-171.8976,-15.85038]]],[[[141.9873,21.53489],[169.7167,22.02463],[169.87034054577268,17.943841266120476],[157.196,15.91483],[156.85091850575952,9.940165562299718],[148.0966,11.67658],[141.63681689943397,12.71137826091178],[141.9873,21.53489]]],[[[-162.77619279984586,2.2868915201896134],[-171.7923,0.585878],[-172.1498,0.558539],[-172.4935,0.494858],[-172.8158,0.3999],[-173.143,0.265256],[-173.7548,-0.72975],[-177.2846,-2.946928],[-177.31313112284508,-2.958432446760973],[-179.9122,0.043989],[-179.9209,4.09126],[-160.58980162970516,6.1541227361410895],[-162.1873,3.935003],[-162.74004033656817,2.3002458225615685],[-162.77619279984586,2.2868915201896134]]]]}}
