{"type":"Feature","properties":{"id":"australia-oceania"},"geometry":{"type":"MultiPolygon","coordinates":[[[[-107.27240286671187,5.3999289930583485],[-115.835181,8.388247],[-119.07250256963047,-22.775577074615118],[-132.92541063148178,-21.60801300107801],[-135.088,-8.407081],[-139.6582,-4.915789],[-147.13934281378707,-10.537766710674292],[-147.6108,-7.767803],[-153.4744,-0.954558],[-153.9157,0.975583],[-154.7777,4.161172],[-157.60839660791575,6.472280230549618],[-107.863281,11.780702],[-107.27240286671187,5.3999289930583485]]],[[[-180.0,-45.65274],[-180.0,-24.21351],[-179.0882,-24.38196],[-177.92917767792153,-22.488137113579437],[-178.6487,-24.65185],[-176.5141,-25.68413],[-174.0579,-25.04989],[-171.4033,-22.18109],[-170.3562,-22.47347],[-167.5035,-21.66637],[-166.2989,-19.63913],[-166.30117688320425,-19.625264699491467],[-166.1372,-19.8979],[-158.3031,-25.28867],[-156.2700287382706,-24.917455238937215],[-156.2696,-24.92628],[-142.1631,-31.54105],[-132.63565541837716,-24.042137361203167],[-132.1216,-26.96123],[-119.57609745649467,-27.623394049715035],[-120.00485757788843,-31.75081998066798],[-180.0,-45.65274]],[[-176.2464,-44.78296],[-173.5849,-44.16624],[-173.8477,-28.48801],[-179.978,-28.488],[-179.989,-45.58329],[-176.2464,-44.78296]]],[[[-180.0,-12.93801],[-179.96390189769923,-12.914402216791071],[-179.91991890506074,-13.970174243574538],[-180.0,-13.90864],[-180.0,-12.93801]]],[[[-180.0,-3.762181],[-179.9966,-3.752028],[-179.916,-3.474669],[-179.862,-3.206936],[-179.8297,-2.93265],[-179.8198,-2.670861],[-179.8315,-2.393733],[-179.8651,-2.123761],[-179.9196,-1.858383],[-180.0,-1.58287],[-180.0,4.082818],[-179.920899997749,4.091258952820825],[-179.9122,0.043989],[-177.31313112284508,-2.958432446760973],[-177.453,-3.014831],[-177.6431,-3.413958],[-176.1046,-7.641456],[-175.798,-7.784883],[-159.2758,-5.800506],[-168.0089,-8.273669],[-168.23635258471202,-9.993851805474613],[-174.15381068475318,-11.011157016745608],[-174.17020732646415,-11.0038923012205],[-174.1553,-10.70377],[-176.77274817037966,-9.110512466288066],[-176.8085,-8.834928],[-176.8784,-8.528072],[-176.9779,-8.225139],[-177.1051,-7.932983],[-177.3773,-7.470233],[-178.1018,-6.482667],[-178.2627,-6.070506],[-178.4695,-5.693292],[-178.7139,-5.355933],[-179.0058,-5.043636],[-179.3382,-4.765292],[-179.6953,-4.534642],[-179.8384,-4.290769],[-180.0,-4.061646],[-180.0,-3.762181]]],[[[-159.28001735611673,6.293897531834912],[-160.5898,6.154125],[-160.58980162970516,6.1541227361410895],[-176.29939034473193,4.477719019209559],[-159.28001735611673,6.293897531834912]]],[[[180.0,-57.16482],[62.057814,-56.558737],[70.189171,-10.433483],[89.5125,-11.14336],[102.8009,-8.390453],[117.85284063472524,-12.891189528804665],[110.2898,-12.83116],[109.9281,-41.16427],[130.32,-41.03913],[129.52766704820095,-35.44411679234353],[140.0856,-39.83156],[140.96270471225327,-38.12381529684511],[141.0205,-39.23224],[143.47425024743922,-39.21749078510109],[146.9655,-56.7096],[152.8587,-56.86236],[161.6707,-55.22558],[148.8867,-39.52946],[147.11537369659865,-39.19858039511005],[147.2747,-39.1987],[150.4683,-37.55345],[150.09269501389463,-37.53214507822022],[158.7979,-37.75984],[160.0747,-31.55308],[153.61808083585893,-28.144671135805112],[154.2005,-27.88593],[153.3749,-22.5632],[152.7978,-20.55049],[148.1616,-18.4379],[144.48761722984798,-9.669798952571652],[144.7344,-9.848514],[146.5011,-12.33183],[147.1427,-12.64016],[148.0844,-13.17348],[150.1164,-13.91883],[152.1177,-14.63179],[154.251,-14.74845],[156.6176,-14.08178],[156.9347,-14.16552],[157.2527531255648,-14.284142517500802],[157.7167,-14.68333],[158.7608,-15.73528],[160.2483,-16.12694],[163.1667,-14.83417],[163.3086,-14.78754],[163.9373,-15.49851],[167.21319917974895,-19.041624915839552],[164.0,-16.9],[157.9,-16.9],[157.9,-25.0],[174.1,-25.0],[174.1,-24.486533558683597],[174.2779,-25.08127],[180.0,-24.21351],[180.0,-57.16482]],[[71.99912,-53.54549],[74.38613,-53.54188],[74.45294,-52.66308],[72.17526,-52.70358],[71.99912,-53.54549]],[[105.9894,-10.82656],[105.9946,-10.17634],[105.3045,-10.171],[105.2993,-10.82123],[105.9894,-10.82656]],[[162.096,-56.75268],[179.9999,-56.75268],[179.9999,-32.667],[162.096,-32.667],[162.096,-56.75268]]],[[[180.0,-13.90864],[179.46557140996163,-13.188060846537518],[179.5351,-13.24039],[180.0,-12.93801],[180.0,-13.90864]]],[[[180.0,-4.061646],[177.2828,-4.361697],[172.9953,-4.292519],[174.94341484356437,-9.783557517644441],[174.9418,-9.783321],[173.7158,-11.40735],[173.7205,-13.6383],[173.4003,-17.02231],[173.2199723605492,-17.87350128477633],[170.8892,-14.53441],[171.4126,-14.84639],[171.6267,-14.95522],[172.0596,-14.72056],[172.4507,-14.42873],[172.7916,-14.08778],[173.0864,-13.69038],[173.3134,-13.265],[173.4763,-12.8086],[173.5252,-12.60633],[173.5934,-11.84453],[173.5556,-11.42483],[173.4623,-11.00404],[173.3162,-10.60012],[173.1212,-10.2193],[172.9005,-9.893008],[172.6391,-9.589967],[172.0863,-9.09029],[171.8347,-8.892104],[171.4561,-8.657036],[171.0487,-8.472736],[170.6218,-8.343538],[170.1837,-8.271368],[170.0055,-7.99213],[169.7992,-7.729893],[169.5866,-7.506819],[169.2748,-7.22671],[169.0287,-7.034952],[168.7824,-6.87513],[168.5191,-6.735355],[168.2421,-6.618179],[167.948,-6.523365],[167.6402,-6.454668],[167.33,-6.415272],[167.0162,-6.404742],[166.7082,-6.422843],[166.3977,-6.470075],[166.0999,-6.543867],[165.8084,-6.645142],[165.5719,-6.311745],[165.2968,-6.009314],[164.98,-5.736934],[164.6392,-5.509989],[164.2849,-5.331133],[163.8482,-5.16829],[163.4444,-5.07394],[163.0329,-5.029992],[162.9509,-4.573012],[162.8104,-4.139945],[162.80338388396748,-4.141786106412334],[162.7127,-3.69223],[162.5573,-3.238233],[162.3562,-2.835284],[162.0941,-2.44802],[161.785,-2.10347],[161.4024,-1.769702],[161.0134,-1.515926],[160.5927,-1.318012],[160.2615,-1.209224],[159.9083,-1.133772],[159.5526,-1.097338],[159.1988,-1.099178],[158.8436,-1.139311],[158.5052,-1.214509],[158.1662,-1.328635],[157.8453,-1.476419],[157.4717,-1.393299],[157.3098,-1.173111],[156.0186,-1.147444],[164.1321,2.103138],[164.4686,2.246064],[165.6345,3.186321],[165.9244,2.693851],[164.0639,1.215055],[163.7052,-1.452108],[165.5827,-3.622265],[167.8693,-3.771196],[167.86936356469525,-3.7706713255936704],[180.0,-3.762181],[180.0,-4.061646]]],[[[180.0,26.27781],[180.0,-1.58287],[175.8179,5.204475],[175.5110622023659,5.6119737665341765],[175.5118,5.612187],[169.8842,17.94606],[169.87034054577268,17.943841266120476],[169.7167,22.02463],[141.9873,21.53489],[141.63681689943397,12.71137826091178],[138.4669,13.21917],[135.3124,11.48818],[134.81355041795027,11.4141774793195],[140.58812261894678,21.029945437230136],[141.5486,21.23422],[142.0845,22.06271],[149.1253,22.84562],[153.38664683448494,23.75192945629944],[180.0,26.27781]]],[[[130.1451,3.640314],[130.1034,2.73197],[130.2197,1.975247],[130.58984846930502,1.9230663886936696],[130.04096282779537,1.3743634777600136],[130.1451,3.640314]]],[[[130.2669,-10.04378],[130.40599778790488,-8.948261960395032],[135.0384,-7.743646],[135.38804814789705,-5.199554227647914],[137.4829,-8.722213],[138.8507,-9.167173],[140.77540695424597,-9.463898353843682],[140.74625003773338,-9.504101065963937],[140.2225,-9.557842],[140.0090183399848,-10.223927735293138],[139.2014,-10.83228],[139.3845,-11.14853],[139.74380983408935,-11.051406792008322],[139.27748134991384,-12.506401807730265],[136.1869,-9.971934],[131.0,-10.50414],[128.6705,-10.89265],[128.84079446277067,-12.978414487302974],[118.7155,-12.89804],[118.2557,-13.01165],[130.2669,-10.04378]]],[[[135.9125,9.10288],[135.3124,11.48818],[136.9541,4.979449],[135.9125,9.10288]]],[[[144.60864799878908,2.5194528526085276],[144.5183,2.501031],[144.1369,2.383223],[143.766,2.217146],[143.4195,2.130052],[143.0908,2.00892],[142.746,1.938496],[142.0076,1.728901],[141.6878,1.604046],[141.3771,1.44365],[141.0843,1.25104],[140.8097,1.025797],[140.8194,0.736111],[141.4,-1.076389],[141.025,-2.141667],[141.00269444200148,-2.5543572963099606],[140.5085,-1.953689],[140.3349,-1.854482],[134.6484,1.120545],[133.2925,1.678134],[132.88169733584442,1.7422320728277827],[136.9541,4.979449],[144.60864799878908,2.5194528526085276]]],[[[153.9182,-0.985608],[152.985,-0.463595],[152.7055,-0.188692],[152.58660314539802,-0.04447893380455997],[156.0186,-1.147444],[153.9182,-0.985608]]],[[[169.64309067264838,-13.772164500594943],[170.0583,-13.92723],[170.5564,-14.30458],[170.8892,-14.53441],[169.64309067264838,-13.772164500594943]]],[[[-154.9049,-8.508367],[-155.9099,-7.918114],[-157.3261,-7.046975],[-159.2758,-5.800506],[-154.9049,-8.508367]]],[[[-174.35294720493067,-14.257170658422913],[-171.896112717584,-15.846923982203439],[-171.8976,-15.85038],[-171.6367893211709,-16.562602765818443],[-174.37331000664366,-14.270313250914677],[-174.35294720493067,-14.257170658422913]]],[[[-162.7424,2.293267],[-162.77619279984586,2.2868915201896134],[-162.74004033656817,2.3002458225615685],[-162.7424,2.293267]]],[[[142.85159302629174,-9.491615438154609],[142.8514,-9.491646],[142.85160018810058,-9.488973357347056],[142.85159302629174,-9.491615438154609]]],[[[172.7647,-20.0225],[172.91506584487382,-20.525187169622193],[171.88899455026325,-20.546997522231255],[172.7647,-20.0225]]],[[[163.4496,-14.28242],[163.5578,-13.63409],[163.8051,-13.25193],[164.1541,-12.62827],[163.4496,-14.28242]]],[[[164.5746,-12.49247],[165.0048,-12.3832],[165.5863,-12.29294],[166.0908,-12.29162],[166.66937151155793,-12.40047532063493],[164.1541,-12.62827],[164.5746,-12.49247]]],[[[168.5602,1.777314],[168.2775412549027,-0.40149939056121997],[168.2904,-0.295361],[168.55972326630004,1.7774797728489191],[168.5602,1.777314]]]]}}
