{"type":"Feature","properties":{"id":"british-columbia"},"geometry":{"type":"MultiPolygon","coordinates":[[[[-128.9768,46.41459],[-141.7761,53.58405],[-138.5921,51.80058],[-131.8311,51.0635],[-128.8517808259747,52.1148064065358],[-127.97754978987699,51.11189464804948],[-129.3393,51.01635],[-128.6798,48.12648],[-126.46619660192003,48.134869371436665],[-126.21057216111153,47.76496320415653],[-128.9768,46.41459]]],[[[-127.2718,51.22323],[-127.28731637481721,51.224601375754624],[-127.1338,51.23441],[-127.105,51.24816],[-127.1159,51.27996],[-127.0651,51.32203],[-126.925,51.36578],[-126.8069,51.38035],[-126.7534,51.39749],[-126.7685,51.42833],[-126.73103562750235,51.42230579925801],[-126.7184,51.39364],[-126.73,51.36749],[-126.7568,51.33576],[-126.7809,51.3113],[-126.809,51.30143],[-126.8111,51.32675],[-126.8509,51.32418],[-126.8948,51.3113],[-126.9271,51.28898],[-126.9271,51.25891],[-126.9233,51.24287],[-126.9937,51.24515],[-127.0747,51.23828],[-127.2038,51.2099],[-127.2162,51.22409],[-127.2718,51.22323]]],[[[-124.40271634760636,53.45538703617238],[-124.40258996816922,53.45507494917343],[-124.403,53.45494],[-124.40271634760636,53.45538703617238]]]]}}
