{"type":"Feature","properties":{"id":"canada"},"geometry":{"type":"MultiPolygon","coordinates":[[[[-65.02339,42.10691],[-59.25128,43.49175],[-58.22593,44.66433],[-58.958808906119806,47.2521902630967],[-56.95862,47.14863],[-56.22528,47.22703],[-56.17447,46.8968],[-55.92316,46.60889],[-55.22442029608768,44.457870911484264],[-65.02339,42.10691]]],[[[-67.29857255600469,43.72782193757992],[-66.93766,44.21031],[-66.93745374667586,44.21212160523477],[-66.7668553512555,44.23135575515718],[-67.24728,43.36104],[-67.19239,42.96849],[-67.29857255600469,43.72782193757992]]],[[[-141.3957,79.2514],[-106.8384,85.03897],[-88.36599,85.03948],[-57.62503,85.04032],[-56.479911191048195,84.23650000200679],[-109.7951,84.32633],[-110.00285964955776,79.4777201528367],[-111.7236,81.65483],[-136.584269872742,69.4916891790837],[-136.6171,69.63799],[-140.97285152879837,70.13271244742901],[-140.9715,72.98845],[-141.2873085485933,72.96833200616832],[-141.3957,79.2514]]],[[[-58.018682592853374,82.46779765673034],[-58.01868259285339,82.46779765673034],[-54.82473,83.07464],[-58.018682592853374,82.46779765673034]]],[[[-75.90901,77.3176],[-74.99331346123044,77.63873535737363],[-74.99331346123044,77.63873535737362],[-75.90901,77.3176]]],[[[-74.69302372304486,76.60217624384343],[-74.69302372304485,76.60217624384342],[-75.90901,77.3176],[-74.69302372304486,76.60217624384343]]],[[[-50.27352,58.67698],[-44.17684,48.97052],[-49.20809,56.98072],[-63.820914924576186,60.467021210968],[-56.63621189792891,61.56786086926117],[-54.62717,58.71155],[-50.29511222955066,58.701533141085775],[-50.27352,58.67698]]]]}}
