{"type":"Feature","properties":{"id":"central-fed-district"},"geometry":{"type":"Polygon","coordinates":[[[30.89839,55.66412],[31.02717,55.79559],[31.38226,55.77573],[31.31302,55.94746],[31.44484,56.05578],[31.4274,56.26712],[31.21635,56.30532],[31.1744,56.3939],[30.96972,56.45285],[31.00833,56.60721],[30.87074,56.61222],[30.70329,56.75361],[30.69976,56.80453],[30.83468,56.85429],[30.98942,57.02046],[31.39938,56.95495],[31.60934,57.02768],[31.74684,57.14956],[31.93279,57.13626],[32.19087,57.22745],[32.25023,57.29775],[32.35456,57.26789],[32.7814,57.50357],[33.19063,57.48839],[33.28096,57.67498],[33.50909,57.76474],[33.51722,57.87189],[33.63629,57.9169],[33.49213,58.06468],[33.56599,58.15196],[33.69621,58.20612],[33.82704,58.18141],[33.99496,58.25034],[34.17836,58.25005],[34.67812,58.1176],[34.6769,58.23617],[34.79444,58.28278],[35.10213,58.25323],[35.21705,58.29779],[35.21589,58.40257],[35.30411,58.44789],[35.64605,58.49705],[35.85933,58.4584],[36.0889,58.5403],[36.47492,58.56397],[36.64294,58.73229],[36.74638,58.75392],[36.74418,58.83083],[36.85317,58.87408],[37.08063,58.89964],[37.19276,58.86277],[37.43014,58.61988],[37.63468,58.52963],[37.68887,58.6545],[37.87882,58.64994],[38.04883,58.76485],[38.4831,58.74317],[38.54664,58.80813],[38.65334,58.79478],[38.6958,58.83817],[38.87783,58.77423],[38.94244,58.85145],[38.89185,58.88415],[38.92456,58.97147],[39.12757,58.98777],[39.4865,58.9211],[39.61453,58.94009],[39.81211,58.86918],[39.89076,58.79151],[40.03719,58.77385],[40.20549,58.59016],[40.44114,58.5797],[40.67725,58.63151],[40.96273,58.62143],[41.13013,58.69307],[41.16673,58.74187],[41.12054,58.80965],[41.16727,58.85814],[41.13722,58.94522],[41.24605,59.02253],[41.3604,59.00826],[41.72761,59.14801],[42.00313,59.14664],[42.04715,59.20916],[41.85683,59.29122],[42.02744,59.46576],[42.23191,59.44233],[42.24439,59.34567],[42.30405,59.3115],[42.49983,59.37435],[42.64727,59.36383],[42.80426,59.21657],[43.02427,59.24508],[43.14119,59.32937],[43.30426,59.27392],[43.50895,59.34254],[43.5813,59.24909],[43.76662,59.30613],[43.96861,59.24782],[44.18006,59.27266],[44.3537,59.18075],[44.99089,59.1631],[45.04369,59.23333],[45.34661,59.25372],[45.94067,59.2157],[46.00675,59.35853],[46.33801,59.39441],[46.39563,59.6533],[47.13637,59.63105],[47.11059,59.41152],[47.27418,59.37792],[47.27537,59.21404],[47.50387,59.18579],[47.50582,59.11334],[47.5812,59.07948],[47.67023,58.89737],[47.49244,58.85841],[47.31951,58.88667],[47.36068,58.82451],[47.34047,58.76788],[47.11008,58.72565],[47.04279,58.67006],[47.03695,58.58663],[46.65339,58.53404],[46.60558,58.37334],[46.47519,58.35664],[46.36026,58.02833],[45.84282,58.00955],[45.72848,57.90901],[45.6191,57.88183],[45.52027,57.91275],[45.4586,57.99039],[45.28148,57.99683],[45.17468,58.05124],[44.89349,58.04074],[44.85933,57.9528],[44.90334,57.83408],[44.75846,57.66506],[44.60017,57.65985],[44.38621,57.49645],[43.92279,57.3835],[43.7388,57.41926],[43.47961,57.5438],[43.3474,57.45696],[43.35657,57.39755],[43.13266,57.17529],[43.33258,56.80168],[43.28632,56.76444],[43.16532,56.82169],[42.88723,56.767],[42.8616,56.68133],[42.96312,56.64255],[42.92884,56.45159],[42.7116,56.42203],[42.83095,56.31457],[42.81245,56.24369],[42.93505,56.23903],[43.00563,56.18951],[42.9978,56.12485],[42.74322,56.06503],[42.74218,55.94073],[42.54476,55.8982],[42.41518,55.75824],[42.23459,55.68895],[42.12191,55.57698],[42.1994,55.42679],[42.05993,55.36657],[41.89677,55.13704],[41.84106,55.11939],[42.0099,55.13356],[42.06764,55.01672],[42.50454,55.04108],[42.53039,54.90139],[42.48533,54.82538],[42.53405,54.73147],[42.66317,54.70454],[42.66812,54.62668],[42.72798,54.58371],[42.6223,54.45289],[42.65475,54.34911],[42.54423,54.33137],[42.49204,54.26075],[42.68458,54.19058],[42.72177,54.11154],[42.59393,54.11589],[42.59715,54.06007],[42.53619,54.03746],[42.38914,54.05512],[42.47084,54.02118],[42.47946,53.92976],[42.36904,53.82129],[42.19096,53.77779],[42.16199,53.60109],[42.35013,53.45075],[42.32417,53.39343],[42.43154,53.36951],[42.6039,53.16539],[42.97677,52.96259],[43.149,52.82565],[43.28473,52.64348],[43.1294,52.53762],[43.15841,52.51123],[43.09409,52.45869],[43.09487,52.36218],[42.97086,52.30729],[42.91286,52.18364],[42.81108,52.151],[42.84355,51.99997],[42.76857,51.97736],[42.69527,51.78277],[42.54443,51.66793],[42.59329,51.57713],[42.76736,51.52495],[42.88644,51.42231],[42.88948,51.34506],[42.98258,51.25589],[42.925801134579636,51.221928862252796],[42.8537,51.25262],[42.75246,51.2446],[42.71042,51.2554],[42.6756,51.24523],[42.64135,51.22335],[42.59084,51.16079],[42.55142,51.1527],[42.44086,51.15309],[42.42048,51.16861],[42.2942,51.14518],[42.17408,51.14405],[42.0887,51.15603],[41.99071,51.18436],[41.96896,51.20264],[41.92688,51.20197],[41.85318,51.1652],[41.78918,51.08296],[41.78057,51.042],[41.74737,51.01408],[41.70791,51.01365],[41.61001,50.99096],[41.53568,50.96651],[41.52647,50.95513],[41.50921,50.96255],[41.46795,50.95654],[41.42135,50.91853],[41.41096,50.89212],[41.412,50.84569],[41.38906,50.84952],[41.1618,50.77968],[41.16686,50.76676],[41.27228,50.74183],[41.34068,50.70573],[41.44438,50.59929],[41.51356,50.59833],[41.52088,50.58017],[41.48142,50.56868],[41.41263,50.49904],[41.48863,50.41651],[41.51086,50.36248],[41.4138,50.25064],[41.37641,50.23255],[41.3824,50.2089],[41.34603,50.22133],[41.28169,50.16617],[41.28727,50.15537],[41.36629,50.12266],[41.37518,50.11107],[41.3737,50.08712],[41.33366,50.07495],[41.31939,50.05487],[41.30107,50.04875],[41.29064,50.02935],[41.18813,50.01824],[41.08003,49.95225],[41.03349,49.86849],[41.03738,49.80996],[41.00731,49.80446],[40.9199,49.71034],[40.79343,49.70856],[40.76609,49.67503],[40.63494,49.68061],[40.60865,49.64501],[40.57156,49.62911],[40.5377,49.58663],[40.37781,49.59525],[40.28125,49.63551],[40.15677,49.64995],[40.13577,49.62492],[39.99011,49.54666],[39.99489,49.54761],[39.79514,49.50784],[39.6294,49.57456],[39.54762,49.68604],[39.25245,49.71591],[39.17134,49.81935],[38.92585,49.74657],[38.65124,49.90573],[38.3358,49.95768],[38.28829,50.02419],[38.19247,49.896],[38.01555,49.85233],[37.88199,49.99718],[37.73295,50.03249],[37.61331,50.13249],[37.57234,50.255],[37.41356,50.38116],[37.16752,50.30649],[36.88982,50.28679],[36.64995,50.16646],[36.46162,50.25969],[36.27515,50.24484],[36.07715,50.39531],[35.85155,50.374],[35.7418,50.3038],[35.59275,50.31192],[35.34606,50.55788],[35.35064,50.67781],[35.41448,50.73853],[35.28067,50.92582],[35.27827,51.00344],[35.12019,51.04252],[35.07328,51.16195],[34.70031,51.12526],[34.60857,51.19203],[34.31097,51.18884],[34.19268,51.23231],[34.22899,51.34658],[34.17101,51.42194],[34.21773,51.50759],[34.05617,51.62284],[34.03453,51.68698],[34.35746,51.79404],[34.21642,51.84007],[34.06314,51.96613],[34.01219,52.07252],[34.03332,52.12261],[33.78861,52.31255],[33.54886,52.25097],[33.21088,52.32006],[32.89863,52.19427],[32.6915,52.19798],[32.44809,52.27175],[32.38992,52.09939],[32.09497,51.98266],[31.90689,51.99334],[31.86193,52.05565],[31.75549,52.06822],[31.730243827217077,52.09502748938798],[31.79993,52.11241],[31.78585,52.18783],[31.71856,52.26606],[31.62758,52.33324],[31.64303,52.39802],[31.6135,52.46856],[31.6832,52.56112],[31.57745,52.59909],[31.61316,52.7658],[31.54072,52.8625],[31.35807,52.98999],[31.30279,53.01065],[31.39206,53.09237],[31.43223,53.20254],[31.54587,53.18649],[31.69212,53.20562],[31.81778,53.11051],[31.93382,53.07876],[32.09553,53.07175],[32.23869,53.09609],[32.41688,53.18464],[32.58202,53.288],[32.7396,53.33087],[32.76947,53.42488],[32.7602,53.46128],[32.65308,53.50581],[32.52228,53.54745],[32.4361,53.60045],[32.50339,53.67963],[32.51301,53.70321],[32.46563,53.741],[32.21603,53.80085],[32.12814,53.82498],[31.9891,53.80876],[31.9194,53.79132],[31.81091,53.81241],[31.89743,53.94639],[31.91597,54.09001],[31.65985,54.14997],[31.32683,54.2576],[31.33575,54.33615],[31.24718,54.47343],[31.11122,54.50354],[31.2204,54.62616],[31.20598,54.66668],[30.77047,54.81374],[30.87055,54.92675],[30.94265,54.9514],[31.02573,55.02783],[31.04118,55.11176],[30.94471,55.23235],[30.84892,55.30433],[30.93784,55.38594],[30.96256,55.49733],[30.96394,55.54165],[30.93664,55.62266],[30.88131288090358,55.63179647474212],[30.89839,55.66412]]]}}
