{"type":"Feature","properties":{"id":"central-america"},"geometry":{"type":"MultiPolygon","coordinates":[[[[-86.8792287506662,24.801660369346262],[-85.66054370397028,24.662676406527517],[-82.89581,23.95012],[-81.60699913258121,24.200393153342887],[-81.60627,24.20031],[-80.38344788029355,24.437558638064594],[-81.51857,23.66466],[-81.12387429193487,23.541841542743605],[-81.64319,23.47253],[-82.34357,23.42718],[-83.02369,23.33722],[-83.44666,23.25145],[-84.03443,23.07974],[-84.68262,22.77112],[-85.4242,21.94815],[-85.10663,21.33207],[-83.02369,21.01273],[-80.30457,21.105],[-79.61243,20.64307],[-79.1026,20.5034],[-78.56873,20.13332],[-78.0177,19.35957],[-77.78149,19.2533],[-74.91681,19.57192],[-74.30707,19.68833],[-73.95001,19.79432],[-73.77148,20.00609],[-73.70831,20.17634],[-73.86212,20.5317],[-74.07361,20.70136],[-74.15547797207907,20.74489181530481],[-73.23503533875808,20.37774797554497],[-74.74,19.03097],[-74.82529,17.38275],[-71.71326,16.99901],[-68.40088,17.60214],[-68.22527720468936,18.108184164744504],[-68.31024,17.70421],[-65.33295,17.51573],[-65.17502,17.79509254982731],[-65.17502,17.28246],[-63.95554,17.59559],[-64.64733,18.27598],[-64.63257,18.32259],[-64.636,18.35094],[-64.63223,18.36886],[-64.68922,18.37505],[-64.73093,18.37913],[-64.75925,18.38059],[-64.78535,18.42506],[-64.85504,18.4047],[-64.88577,18.48596],[-65.17159,18.48482],[-65.1736518125025,18.28498648736775],[-65.28077,18.73991],[-67.43408,18.81272],[-68.13435417722074,18.370202018218958],[-68.05482,18.5994],[-68.16174,19.76819],[-69.13697,21.13063],[-70.78492,21.45307],[-71.2793,20.93579],[-72.90642578307347,20.520435544686734],[-72.53175,21.95452],[-71.86673,23.77465],[-77.88196110954921,27.800104050419595],[-61.12062,24.56797],[-44.93667,10.18409],[-60.017524,11.606745],[-60.625771,10.1482],[-60.969631,9.869484],[-61.11546954241573,9.86061528821273],[-61.23658,9.905131],[-61.49591,9.989646],[-61.85707,10.00637],[-62.05645,10.05456],[-61.85115,10.57356],[-61.78667,10.57469],[-61.78683,10.71409],[-61.71329,10.92128],[-61.74813930605291,10.987192119372459],[-61.784366,11.703881],[-62.80462703390159,11.7135047868926],[-64.38048,12.17054],[-63.29225,15.90852],[-63.91847,15.96134],[-65.86739,14.93202],[-68.01652,12.20314],[-68.02009237871628,11.762700556755817],[-68.85738542507356,11.770598466777905],[-68.8900804838813,11.779392036612204],[-68.97286196012071,11.819878682881539],[-69.06828,11.90759],[-69.73507,12.29322],[-70.12379,12.39167],[-70.38455,12.3859],[-70.41362,12.5891],[-70.86825,12.7402],[-71.01381,12.73016],[-71.11599337063222,12.65638538839898],[-71.93361,13.13889],[-72.04869479212654,13.075129899913742],[-72.06026,13.08163],[-75.03364,11.67138],[-78.49407,16.30701],[-79.53972,16.41924],[-81.84656,14.50152],[-82.65565,11.57068],[-81.71679,11.36213],[-77.5663,10.65774],[-77.54183,10.4347],[-76.85253,10.28158],[-77.13192880752742,9.508511823970998],[-81.54938,11.20708],[-82.40233772551827,9.840092151668392],[-83.34037450941116,11.047944692024808],[-82.95166,11.07911],[-82.41598788514402,14.773677997768232],[-82.10358,14.65003],[-81.66138,15.93493],[-83.36976,17.93171],[-86.52833,17.21427],[-86.96233134219658,16.87299161881285],[-86.88189978998382,17.918492673112002],[-85.49087,18.19755],[-86.19429,21.60805],[-86.21178886315072,21.626798915171506],[-86.8792287506662,24.801660369346262]],[[-61.27899,14.13392],[-60.42755,14.17919],[-60.61707,15.04295],[-61.27076,15.15167],[-61.63056,14.86251],[-61.27899,14.13392]],[[-61.41358,15.71295],[-61.01257,15.57939],[-60.60471,16.40447],[-61.41358,16.82426],[-61.9574,16.57302],[-62.15241,16.25687],[-61.83243,15.49074],[-61.41358,15.71295]],[[-78.85,19.16],[-78.85,16.35],[-75.51,16.35],[-75.51,19.16],[-78.85,19.16]]],[[[-79.20293,28.05483],[-78.73241872109686,27.964100056870155],[-78.78879,27.97497],[-79.34379,27.2834],[-79.84425,24.5427],[-79.20293,28.05483]]],[[[-95.33558,3.283755],[-99.82733,9.313548],[-99.32115137839445,9.65966173569015],[-97.13221,9.456709],[-92.70801514055549,14.02882238808524],[-90.5482,12.74168],[-90.46405757887113,12.933516912138858],[-89.22492,12.03598],[-87.93755405733472,12.88981448042456],[-86.36878245833265,11.113181057673279],[-86.82139,11.10308],[-87.82473,4.937746],[-86.57229,4.937746],[-82.97035619527534,7.90431987530876],[-83.46462,6.644027],[-78.07348953146798,7.068968917257353],[-78.0884,7.039141],[-81.76445,4.30503],[-82.72221,4.231208],[-83.23104,3.935162],[-82.19674450930565,3.2977721093697494],[-95.33558,3.283755]]],[[[-88.2501870307488,16.127177416294064],[-87.50431843277185,16.44679828964089],[-88.0497784142687,16.017874041283854],[-88.2501870307488,16.127177416294064]]]]}}
