{"type":"Feature","properties":{"id":"china"},"geometry":{"type":"MultiPolygon","coordinates":[[[[117.66499717241042,23.14843282482569],[117.39671335221819,23.4164544041397],[117.655,23.24],[117.7127,23.18252],[117.935,23.34136],[117.66499717241042,23.14843282482569]]],[[[117.35904724559936,20.140798126407024],[116.93184287425156,19.22431499255429],[112.86073482468677,20.253373136549705],[117.3812,21.60124],[117.4019,22.96044],[117.35904724559936,20.140798126407024]]],[[[111.82781487066286,14.293179863015892],[111.43694604175823,14.70180901176259],[112.08779809415117,14.297391184231106],[111.82781487066286,14.293179863015892]]],[[[108.9264,18.02341],[109.55497040622477,16.66929796212275],[109.55491349399522,16.669357460333387],[108.9264,18.02341]]],[[[109.0702,20.13898],[109.22336580966633,20.1858715490364],[109.00356613030212,20.06725568750774],[109.0702,20.13898]]],[[[109.5711,20.29233],[109.43692864008842,20.2512526311173],[109.43692695339845,20.251253065090143],[109.5711,20.29233]]],[[[109.1412,20.61042],[108.8653,20.80159],[108.951,20.74224],[109.40996799993016,20.748990778167336],[109.40270065543369,20.67552662564994],[109.1412,20.61042]]],[[[123.5214,53.65559],[121.458,53.45024],[121.46866203526113,53.38209096199838],[121.4069,53.44515],[120.8545,53.39018],[123.5214,53.65559]]],[[[131.3457,43.40704],[131.3514,43.47293],[131.35139926995603,43.47293003762935],[131.4019,44.05462],[131.3457,43.40704]]],[[[123.8489,35.08396],[124.39286901789376,32.945234513219376],[124.4013,32.36076],[124.5358190589226,32.383197180158604],[125.0134,30.50549],[121.5527,26.24909],[121.33221005547713,26.34832998741976],[121.6277,26.64182],[121.43599915285527,26.717122221711833],[123.8379,30.88102],[123.42316169419237,30.89312672997107],[123.679,31.71416],[122.93879468091752,31.710087207463328],[121.09793563491188,35.518174371022205],[123.5632,37.23908],[121.3165,38.41056],[119.175,38.44],[118.79018215976811,38.426897723262265],[119.92117394385065,39.70661501169554],[120.005,39.415],[120.7499,38.59848],[121.8191,38.26191],[123.71362980155833,38.72137847807836],[123.7396,37.9977],[124.04837023871251,38.01320910176381],[123.8489,35.08396]]],[[[122.2081,42.72583],[122.21058302976822,42.7237615784582],[122.20801864294594,42.7247235440649],[122.2081,42.72583]]],[[[114.21315022037055,41.518242984283724],[114.21376296309515,41.519287311014345],[114.2139,41.51809],[114.21315022037055,41.518242984283724]]],[[[110.66076916758949,33.95410705973961],[110.6659,33.94898],[110.6633756956912,33.94825877019749],[110.66076916758949,33.95410705973961]]]]}}
