{"type":"Feature","properties":{"id":"cook-islands"},"geometry":{"type":"Polygon","coordinates":[[[-157.3261,-7.046975],[-155.9099,-7.918114],[-154.9049,-8.508367],[-155.4393,-11.35762],[-158.2149,-12.42739],[-158.1311,-15.86266],[-154.8056,-19.25722],[-156.3231,-21.40556],[-156.1425,-24.89417],[-158.3031,-25.28867],[-166.1372,-19.8979],[-166.30117688320425,-19.625264699491467],[-166.6411,-17.55527],[-166.64112854921183,-17.555260245739053],[-165.2008,-15.64639],[-168.1733,-12.03194],[-168.4661,-11.73139],[-168.2417514740311,-10.034682630004994],[-168.1128,-10.01211],[-167.73114390291397,-8.195010092814966],[-159.2758,-5.800506],[-157.3261,-7.046975]]]}}
