{"type":"Feature","properties":{"id":"enfield"},"geometry":{"type":"MultiPolygon","coordinates":[[[[-0.11983,51.60852],[-0.122524,51.60879],[-0.124863,51.60931],[-0.126526,51.60968],[-0.12687,51.6094],[-0.127438,51.60881],[-0.129638,51.60959],[-0.132235,51.61036],[-0.134488,51.61087],[-0.135003,51.61108],[-0.135779,51.61113],[-0.137286,51.61063],[-0.138636,51.61025],[-0.142676,51.61388],[-0.144232,51.61555],[-0.14171,51.61652],[-0.140798,51.61765],[-0.139242,51.61891],[-0.137203,51.62041],[-0.135236,51.62203],[-0.134521,51.62381],[-0.134381,51.62494],[-0.13345,51.62643],[-0.132263,51.62811],[-0.130681,51.62987],[-0.131966,51.63032],[-0.130813,51.63143],[-0.129989,51.63141],[-0.12923,51.63235],[-0.131307,51.63294],[-0.132922,51.6336],[-0.133977,51.63427],[-0.1349,51.63484],[-0.136647,51.6357],[-0.139911,51.63736],[-0.140175,51.6373],[-0.142614,51.6393],[-0.142482,51.63953],[-0.143768,51.64072],[-0.14502,51.64235],[-0.146339,51.64215],[-0.14746,51.64198],[-0.14835,51.64301],[-0.148877,51.64423],[-0.149306,51.64515],[-0.151576,51.64522],[-0.151547,51.64569],[-0.152108,51.64583],[-0.150921,51.64745],[-0.151943,51.64802],[-0.150789,51.64857],[-0.149767,51.64886],[-0.150394,51.65004],[-0.152075,51.64988],[-0.153031,51.65147],[-0.154613,51.65348],[-0.153657,51.65377],[-0.153806,51.65457],[-0.154639,51.65491],[-0.155054,51.65563],[-0.15583,51.6561],[-0.15746,51.6566],[-0.158768,51.65695],[-0.160475,51.6571],[-0.162353,51.65815],[-0.163612,51.65853],[-0.165129,51.65853],[-0.167304,51.65894],[-0.169612,51.65957],[-0.172908,51.66033],[-0.176139,51.66102],[-0.177688,51.66129],[-0.180029,51.66178],[-0.182501,51.66227],[-0.184349,51.66263],[-0.185433,51.66302],[-0.184543,51.66501],[-0.183358,51.66698],[-0.18195,51.66877],[-0.180532,51.66962],[-0.178867,51.67089],[-0.177666,51.67159],[-0.177128,51.67234],[-0.177062,51.67275],[-0.175612,51.67258],[-0.175119,51.6728],[-0.17261,51.67276],[-0.172512,51.67324],[-0.169677,51.67641],[-0.167568,51.67873],[-0.166085,51.68034],[-0.164832,51.68151],[-0.163726,51.68245],[-0.163662,51.68346],[-0.163672,51.68476],[-0.163598,51.68611],[-0.163555,51.68702],[-0.163615,51.68824],[-0.160128,51.68781],[-0.158164,51.68723],[-0.156159,51.68663],[-0.154287,51.68612],[-0.151495,51.68564],[-0.149089,51.6856],[-0.147069,51.68575],[-0.14509,51.68614],[-0.141765,51.68725],[-0.139426,51.68797],[-0.137301,51.68842],[-0.135477,51.68866],[-0.132795,51.68896],[-0.129619,51.689],[-0.126465,51.68881],[-0.123397,51.68853],[-0.121122,51.68856],[-0.118569,51.68888],[-0.115307,51.68985],[-0.11417,51.69032],[-0.111132,51.69148],[-0.108591,51.69189],[-0.106467,51.69193],[-0.105676,51.69188],[-0.104493,51.69181],[-0.101961,51.69143],[-0.099686,51.69094],[-0.098077,51.69065],[-0.095824,51.69023],[-0.093227,51.69001],[-0.09033,51.68983],[-0.086983,51.68985],[-0.084065,51.68969],[-0.080825,51.6893],[-0.078679,51.68861],[-0.076834,51.68797],[-0.073529,51.68671],[-0.069946,51.68519],[-0.067714,51.68429],[-0.064002,51.68325],[-0.060418,51.68284],[-0.057747,51.68282],[-0.056224,51.68302],[-0.053574,51.68337],[-0.051117,51.68345],[-0.04911,51.68344],[-0.046567,51.68332],[-0.04454,51.68322],[-0.041171,51.68297],[-0.038617,51.68286],[-0.034777,51.68268],[-0.031901,51.68258],[-0.02791,51.68233],[-0.023018,51.68153],[-0.020271,51.68115],[-0.015894,51.68093],[-0.011374,51.6808],[-0.01092,51.68079],[-0.010663,51.67916],[-0.010169,51.67675],[-0.01062,51.67465],[-0.010835,51.67384],[-0.0112,51.67077],[-0.010363,51.66924],[-0.011135,51.66756],[-0.011172,51.66645],[-0.011328,51.66399],[-0.010996,51.663],[-0.010234,51.66235],[-0.009762,51.66197],[-0.008839,51.66102],[-0.009075,51.65929],[-0.009762,51.65751],[-0.010899,51.65474],[-0.011629,51.65317],[-0.011414,51.65037],[-0.011757,51.6483],[-0.012079,51.64603],[-0.012487,51.64329],[-0.012959,51.64071],[-0.013667,51.63842],[-0.015019,51.63561],[-0.0171,51.63281],[-0.019268,51.6302],[-0.020984,51.62812],[-0.022357,51.62624],[-0.02446,51.62377],[-0.025104,51.62245],[-0.025861,51.62175],[-0.026942,51.62074],[-0.028428,51.61955],[-0.029563,51.61861],[-0.03159,51.6172],[-0.032563,51.61626],[-0.033266,51.61549],[-0.034023,51.61467],[-0.034509,51.61401],[-0.034834,51.61361],[-0.035077,51.61329],[-0.035347,51.61262],[-0.035347,51.61186],[-0.034969,51.61134],[-0.034374,51.61072],[-0.033753,51.60979],[-0.033888,51.60917],[-0.034655,51.60857],[-0.035493,51.60801],[-0.036358,51.60763],[-0.037818,51.60716],[-0.039115,51.60662],[-0.040547,51.6061],[-0.041322,51.6057],[-0.041541,51.60542],[-0.041818,51.60555],[-0.042547,51.60576],[-0.04298,51.60586],[-0.044142,51.60612],[-0.045493,51.6064],[-0.046818,51.60669],[-0.048088,51.60692],[-0.049264,51.60718],[-0.05106,51.60764],[-0.05306,51.60811],[-0.053339,51.60866],[-0.053857,51.60885],[-0.054529,51.60901],[-0.060112,51.60886],[-0.06512,51.60867],[-0.069294,51.60892],[-0.07445,51.60899],[-0.079606,51.60909],[-0.084537,51.60916],[-0.090149,51.60898],[-0.099549,51.60845],[-0.105645,51.60825],[-0.112587,51.60858],[-0.116783,51.60859],[-0.118564,51.60875],[-0.11983,51.60852]]]]}}
