{"type":"Feature","properties":{"id":"fiji"},"geometry":{"type":"MultiPolygon","coordinates":[[[[-179.91991890506074,-13.970174243574538],[-179.9121,-14.15786],[-177.4512,-16.25685],[-177.25874533430684,-16.132635597679695],[-176.2675,-17.49122],[-177.92917767792153,-22.488137113579437],[-179.0882,-24.38196],[-180.0,-24.21351],[-180.0,-13.90864],[-179.91991890506074,-13.970174243574538]]],[[[180.0,-24.21351],[174.2779,-25.08127],[174.1,-24.486533558683597],[174.1,-20.5],[172.91506584487382,-20.525187169622196],[172.7647,-20.0225],[173.6089,-18.55001],[173.526,-18.31192],[173.2199723605492,-17.87350128477633],[173.4003,-17.02231],[173.7205,-13.6383],[173.7158,-11.40735],[174.9418,-9.783321],[174.94341484356437,-9.783557517644441],[174.9439,-9.784925],[179.46557140996163,-13.188060846537518],[180.0,-13.90864],[180.0,-24.21351]]]]}}
