{"type":"Feature","properties":{"id":"greater-london"},"geometry":{"type":"Polygon","coordinates":[[[-0.138209,51.29877],[-0.156336,51.2999],[-0.159461,51.30436],[-0.157333,51.30897],[-0.163585,51.31937],[-0.161202,51.32165],[-0.166081,51.32817],[-0.173567,51.32846],[-0.176264,51.33254],[-0.188524,51.33935],[-0.197073,51.34149],[-0.210716,51.33474],[-0.215802,51.32816],[-0.221631,51.3283],[-0.230223,51.33451],[-0.231037,51.33774],[-0.219688,51.34533],[-0.228003,51.36123],[-0.246769,51.3658],[-0.24693,51.37832],[-0.26009,51.37757],[-0.283173,51.36372],[-0.29173,51.35117],[-0.302569,51.34217],[-0.304773,51.33397],[-0.318615,51.32626],[-0.329151,51.32498],[-0.332438,51.32861],[-0.329693,51.34326],[-0.33209,51.34911],[-0.321209,51.36093],[-0.318301,51.37395],[-0.309555,51.3777],[-0.313434,51.38669],[-0.318334,51.38781],[-0.317824,51.39161],[-0.328514,51.39028],[-0.341472,51.4016],[-0.359519,51.41024],[-0.378049,51.40619],[-0.389894,51.40877],[-0.391975,51.4147],[-0.388262,51.41647],[-0.392043,51.42077],[-0.406476,51.42106],[-0.419562,51.43061],[-0.42921,51.42713],[-0.43858,51.42852],[-0.441825,51.43303],[-0.448771,51.43365],[-0.448755,51.43772],[-0.457308,51.43662],[-0.45934,51.44742],[-0.463187,51.44876],[-0.460615,51.45531],[-0.511482,51.46629],[-0.5106515439210704,51.46806183236335],[-0.507426,51.46904],[-0.497692,51.48768],[-0.489757,51.49315],[-0.489118,51.49507],[-0.4917534018118526,51.49536155698523],[-0.485597,51.50704],[-0.490952,51.51027],[-0.493976,51.51658],[-0.490806,51.52871],[-0.497123,51.53908],[-0.49253,51.54737],[-0.478557,51.55801],[-0.484183,51.56181],[-0.487194,51.57426],[-0.501194,51.59166],[-0.502561,51.60055],[-0.498895,51.60306],[-0.50095,51.60902],[-0.49743,51.61847],[-0.501812,51.6216],[-0.500724,51.63144],[-0.491067,51.63239],[-0.487075,51.62826],[-0.457079,51.61405],[-0.449792,51.61677],[-0.446232,51.62119],[-0.44048,51.62177],[-0.399726,51.6151],[-0.338285,51.63168],[-0.317144,51.64217],[-0.296026,51.63717],[-0.275507,51.64049],[-0.273585,51.64365],[-0.263489,51.64652],[-0.258154,51.64376],[-0.253414,51.64799],[-0.251436,51.65754],[-0.228998,51.66167],[-0.226412,51.65934],[-0.211841,51.66332],[-0.212435,51.66808],[-0.203619,51.67181],[-0.194274,51.66989],[-0.19138,51.66614],[-0.188624,51.66937],[-0.173184,51.67482],[-0.165318,51.68311],[-0.163797,51.68979],[-0.149487,51.68722],[-0.109396,51.69344],[-0.085221,51.69183],[-0.061824,51.68469],[-0.049026,51.68596],[-0.010162,51.68229],[-0.009804,51.66409],[-0.007249,51.66042],[-0.010251,51.64821],[0.001981,51.64336],[0.023345,51.64268],[0.027409,51.63467],[0.024738,51.62935],[0.041055,51.61787],[0.054345,51.61984],[0.055719,51.61595],[0.050823,51.61462],[0.072721,51.60646],[0.079165,51.60875],[0.087639,51.60632],[0.092452,51.61119],[0.091527,51.61511],[0.119134,51.61711],[0.135723,51.62526],[0.168982,51.62328],[0.181104,51.62752],[0.20317,51.62682],[0.224534,51.63337],[0.253588,51.61892],[0.265188,51.61016],[0.265522,51.60665],[0.258163,51.60295],[0.271069,51.60076],[0.27301,51.58956],[0.28802,51.57456],[0.291341,51.56611],[0.313883,51.56727],[0.316682,51.55936],[0.329071,51.55211],[0.335437,51.54316],[0.334299,51.53883],[0.302227,51.53717],[0.297882,51.53362],[0.267091,51.53065],[0.268281,51.52264],[0.263873,51.51618],[0.252963,51.51641],[0.248694,51.52572],[0.245056,51.52197],[0.246059,51.51754],[0.240405,51.5175],[0.242968,51.50664],[0.228286,51.50505],[0.230944,51.498],[0.215304,51.49469],[0.212057,51.48752],[0.225376,51.48225],[0.213357,51.47424],[0.211768,51.46126],[0.204901,51.45795],[0.204853,51.45355],[0.201057,51.45112],[0.193724,51.45003],[0.184933,51.44311],[0.173025,51.44098],[0.165189,51.42714],[0.157052,51.42893],[0.155298,51.42664],[0.156221,51.41792],[0.151919,51.41312],[0.155222,51.4121],[0.154027,51.40744],[0.164055,51.39238],[0.151501,51.39088],[0.152082,51.38128],[0.154909,51.37808],[0.152381,51.37354],[0.153723,51.36953],[0.147061,51.36249],[0.143948,51.34972],[0.13735,51.34253],[0.11915,51.34255],[0.123356,51.33357],[0.118993,51.32838],[0.114535,51.32574],[0.105609,51.32573],[0.087196,51.31539],[0.085856,51.30468],[0.092844,51.29662],[0.086319,51.29152],[0.058588,51.28766],[0.050246,51.29224],[0.042004,51.29101],[0.040865,51.30096],[0.033062,51.30544],[0.026066,51.301],[0.020202,51.29041],[0.014433,51.29018],[0.00674,51.30982],[0.007807,51.31403],[0.004981,51.31501],[0.001184,51.32732],[-0.008716,51.3322],[-0.014828,51.32817],[-0.0228,51.33655],[-0.037603,51.33689],[-0.041152,51.33233],[-0.048737,51.33104],[-0.046217,51.32498],[-0.050547,51.32094],[-0.063768,51.31693],[-0.077146,51.31817],[-0.081617,51.31507],[-0.080604,51.30962],[-0.087078,51.30648],[-0.093335,51.29799],[-0.113169,51.29066],[-0.117109,51.28554],[-0.125777,51.28587],[-0.138209,51.29877]],[[-0.11983,51.60852],[-0.118564,51.60875],[-0.116783,51.60859],[-0.112587,51.60858],[-0.105645,51.60825],[-0.099549,51.60845],[-0.090149,51.60898],[-0.084537,51.60916],[-0.079606,51.60909],[-0.07445,51.60899],[-0.069294,51.60892],[-0.06512,51.60867],[-0.060112,51.60886],[-0.054529,51.60901],[-0.053857,51.60885],[-0.053339,51.60866],[-0.05306,51.60811],[-0.05106,51.60764],[-0.049264,51.60718],[-0.048088,51.60692],[-0.046818,51.60669],[-0.045493,51.6064],[-0.044142,51.60612],[-0.04298,51.60586],[-0.042547,51.60576],[-0.041818,51.60555],[-0.041541,51.60542],[-0.041322,51.6057],[-0.040547,51.6061],[-0.039115,51.60662],[-0.037818,51.60716],[-0.036358,51.60763],[-0.035493,51.60801],[-0.034655,51.60857],[-0.033888,51.60917],[-0.033753,51.60979],[-0.034374,51.61072],[-0.034969,51.61134],[-0.035347,51.61186],[-0.035347,51.61262],[-0.035077,51.61329],[-0.034834,51.61361],[-0.034509,51.61401],[-0.034023,51.61467],[-0.033266,51.61549],[-0.032563,51.61626],[-0.03159,51.6172],[-0.029563,51.61861],[-0.028428,51.61955],[-0.026942,51.62074],[-0.025861,51.62175],[-0.025104,51.62245],[-0.02446,51.62377],[-0.022357,51.62624],[-0.020984,51.62812],[-0.019268,51.6302],[-0.0171,51.63281],[-0.015019,51.63561],[-0.013667,51.63842],[-0.012959,51.64071],[-0.012487,51.64329],[-0.012079,51.64603],[-0.011757,51.6483],[-0.011414,51.65037],[-0.011629,51.65317],[-0.010899,51.65474],[-0.009762,51.65751],[-0.009075,51.65929],[-0.008839,51.66102],[-0.009762,51.66197],[-0.010234,51.66235],[-0.010996,51.663],[-0.011328,51.66399],[-0.011172,51.66645],[-0.011135,51.66756],[-0.010363,51.66924],[-0.0112,51.67077],[-0.010835,51.67384],[-0.01062,51.67465],[-0.010169,51.67675],[-0.010663,51.67916],[-0.01092,51.68079],[-0.011374,51.6808],[-0.015894,51.68093],[-0.020271,51.68115],[-0.023018,51.68153],[-0.02791,51.68233],[-0.031901,51.68258],[-0.034777,51.68268],[-0.038617,51.68286],[-0.041171,51.68297],[-0.04454,51.68322],[-0.046567,51.68332],[-0.04911,51.68344],[-0.051117,51.68345],[-0.053574,51.68337],[-0.056224,51.68302],[-0.057747,51.68282],[-0.060418,51.68284],[-0.064002,51.68325],[-0.067714,51.68429],[-0.069946,51.68519],[-0.073529,51.68671],[-0.076834,51.68797],[-0.078679,51.68861],[-0.080825,51.6893],[-0.084065,51.68969],[-0.086983,51.68985],[-0.09033,51.68983],[-0.093227,51.69001],[-0.095824,51.69023],[-0.098077,51.69065],[-0.099686,51.69094],[-0.101961,51.69143],[-0.104493,51.69181],[-0.105676,51.69188],[-0.106467,51.69193],[-0.108591,51.69189],[-0.111132,51.69148],[-0.11417,51.69032],[-0.115307,51.68985],[-0.118569,51.68888],[-0.121122,51.68856],[-0.123397,51.68853],[-0.126465,51.68881],[-0.129619,51.689],[-0.132795,51.68896],[-0.135477,51.68866],[-0.137301,51.68842],[-0.139426,51.68797],[-0.141765,51.68725],[-0.14509,51.68614],[-0.147069,51.68575],[-0.149089,51.6856],[-0.151495,51.68564],[-0.154287,51.68612],[-0.156159,51.68663],[-0.158164,51.68723],[-0.160128,51.68781],[-0.163615,51.68824],[-0.163555,51.68702],[-0.163598,51.68611],[-0.163672,51.68476],[-0.163662,51.68346],[-0.163726,51.68245],[-0.164832,51.68151],[-0.166085,51.68034],[-0.167568,51.67873],[-0.169677,51.67641],[-0.172512,51.67324],[-0.17261,51.67276],[-0.175119,51.6728],[-0.175612,51.67258],[-0.177062,51.67275],[-0.177128,51.67234],[-0.177666,51.67159],[-0.178867,51.67089],[-0.180532,51.66962],[-0.18195,51.66877],[-0.183358,51.66698],[-0.184543,51.66501],[-0.185433,51.66302],[-0.184349,51.66263],[-0.182501,51.66227],[-0.180029,51.66178],[-0.177688,51.66129],[-0.176139,51.66102],[-0.172908,51.66033],[-0.169612,51.65957],[-0.167304,51.65894],[-0.165129,51.65853],[-0.163612,51.65853],[-0.162353,51.65815],[-0.160475,51.6571],[-0.158768,51.65695],[-0.15746,51.6566],[-0.15583,51.6561],[-0.155054,51.65563],[-0.154639,51.65491],[-0.153806,51.65457],[-0.153657,51.65377],[-0.154613,51.65348],[-0.153031,51.65147],[-0.152075,51.64988],[-0.150394,51.65004],[-0.149767,51.64886],[-0.150789,51.64857],[-0.151943,51.64802],[-0.150921,51.64745],[-0.152108,51.64583],[-0.151547,51.64569],[-0.151576,51.64522],[-0.149306,51.64515],[-0.148877,51.64423],[-0.14835,51.64301],[-0.14746,51.64198],[-0.146339,51.64215],[-0.14502,51.64235],[-0.143768,51.64072],[-0.142482,51.63953],[-0.142614,51.6393],[-0.140175,51.6373],[-0.139911,51.63736],[-0.136647,51.6357],[-0.1349,51.63484],[-0.133977,51.63427],[-0.132922,51.6336],[-0.131307,51.63294],[-0.12923,51.63235],[-0.129989,51.63141],[-0.130813,51.63143],[-0.131966,51.63032],[-0.130681,51.62987],[-0.132263,51.62811],[-0.13345,51.62643],[-0.134381,51.62494],[-0.134521,51.62381],[-0.135236,51.62203],[-0.137203,51.62041],[-0.139242,51.61891],[-0.140798,51.61765],[-0.14171,51.61652],[-0.144232,51.61555],[-0.142676,51.61388],[-0.138636,51.61025],[-0.137286,51.61063],[-0.135779,51.61113],[-0.135003,51.61108],[-0.134488,51.61087],[-0.132235,51.61036],[-0.129638,51.60959],[-0.127438,51.60881],[-0.12687,51.6094],[-0.126526,51.60968],[-0.124863,51.60931],[-0.122524,51.60879],[-0.11983,51.60852]]]}}
