{"type":"Feature","properties":{"id":"italy"},"geometry":{"type":"MultiPolygon","coordinates":[[[[11.597682930167801,36.54376884246275],[11.91399,35.33933],[11.97558,35.14535],[11.59726,36.33682],[11.597682930167801,36.54376884246275]]],[[[9.923768,37.83806],[9.356846477822545,38.0762688111332],[11.23575,37.92198],[11.25351,37.85436],[11.60037,37.85861],[9.923768,37.83806]]],[[[9.418028,41.42728],[9.330386069776607,41.37024929318694],[9.330386069776612,41.370249293186944],[9.418028,41.42728]]],[[[9.653921,41.96821],[9.704908073121645,42.21991995138487],[12.537585841679752,40.336606120697724],[9.877036,41.51893],[9.627708,41.51465],[9.623821,41.4474],[9.653921,41.96821]]],[[[9.320258,43.49438],[9.488495304576041,43.104684199518225],[9.488495304576038,43.10468419951823],[9.320258,43.49438]]],[[[7.729731778325978,43.482312855696584],[9.754377366591138,43.84875055687507],[9.306459,43.49428],[9.320258,43.49438],[7.729731778325978,43.482312855696584]]],[[[14.105373709420864,43.83003200669673],[12.989161656468193,44.18610400388733],[13.26463,44.55021],[13.00979,44.76851],[14.105373709420864,43.83003200669673]]],[[[15.58512,42.56248],[15.964351741006057,42.382683626892145],[15.97795,42.31885],[16.01734,42.26613],[16.07264,42.21859],[16.21414,42.17832],[16.33616,42.16483],[16.420340899978484,42.166496034729505],[18.02457,41.40592],[18.163967434871104,41.246571004822655],[13.942222177861975,42.90033011569739],[14.635620331842974,43.327341130030895],[14.97115,42.96964],[15.171195148783106,42.917048400760294],[15.58512,42.56248]]],[[[17.41399,38.37065],[15.50718,36.30954],[15.52049,36.32393],[15.68604,37.02034],[15.45372,37.81395],[15.458962371308953,37.82925625708418],[15.47762,37.80338],[16.70083,37.80152],[17.50777,38.46807],[19.12499,40.148],[17.41399,38.37065]]],[[[13.445365098409056,40.85275707250487],[15.39027,39.4749],[15.526045640225831,39.00856207250762],[12.765694238930319,40.23523684698081],[13.00344,40.34679],[13.445365098409056,40.85275707250487]]],[[[12.42345,43.91068],[12.414568286730205,43.90576029176341],[12.4119,43.92114],[12.41779,43.93098],[12.41414,43.93908],[12.40886,43.94359],[12.40872,43.94774],[12.42169,43.95442],[12.4374,43.95437],[12.44823,43.96334],[12.47089,43.97519],[12.50285,43.98466],[12.50671,43.98408],[12.50849,43.97776],[12.50358,43.97178],[12.50403,43.9573],[12.51248,43.94294],[12.50158,43.92772],[12.494284010767263,43.922614976810394],[12.49325,43.92303],[12.47605,43.90429],[12.42345,43.91068]]]]}}
