{"type":"Feature","properties":{"id":"java"},"geometry":{"type":"MultiPolygon","coordinates":[[[[106.842,-4.932249],[109.0558,-3.951935],[110.2862,-4.532613],[113.9502,-5.069052],[114.5737,-4.882992],[116.5814,-5.304294],[116.4304,-7.623884],[114.9802,-7.558544],[114.5088,-8.032714],[114.4338,-8.093901],[114.4202,-8.164255],[114.4295,-8.275367],[114.5483,-8.443167],[114.8209,-8.597313],[114.9719,-8.985459],[115.0351,-9.541155],[105.4578,-7.917782],[104.1394,-6.511804],[105.179,-6.256601],[105.5717,-6.236124],[105.7324,-6.064086],[105.7928,-5.911799],[106.3229,-5.194891],[106.842,-4.932249]]]]}}
