{"type":"Feature","properties":{"id":"kent"},"geometry":{"type":"Polygon","coordinates":[[[0.8526594548767853,50.91803621979702],[0.85305,50.92037],[0.866156,50.92796],[0.869466,50.93381],[0.861761,50.93994],[0.857239,50.95422],[0.84461,50.95901],[0.839239,50.95828],[0.837138,50.95311],[0.829192,50.94751],[0.81837,50.94705],[0.81456,50.95028],[0.785478,50.97845],[0.782719,50.98657],[0.779529,50.99223],[0.74161,51.00228],[0.71108,51.00017],[0.704848,50.99661],[0.699616,51.00014],[0.677724,51.00481],[0.672064,51.01267],[0.661335,51.01949],[0.646284,51.0185],[0.627098,51.01949],[0.611269,51.0137],[0.591596,51.01154],[0.584179,51.0073],[0.570458,51.00525],[0.563728,51.00917],[0.542904,51.01247],[0.542584,51.01761],[0.537892,51.02335],[0.509953,51.02535],[0.505269,51.02948],[0.493486,51.03276],[0.472759,51.03211],[0.468248,51.03552],[0.468834,51.04255],[0.473422,51.04619],[0.472496,51.05036],[0.463594,51.05644],[0.44171,51.05948],[0.425807,51.06575],[0.418812,51.06428],[0.418488,51.06941],[0.413097,51.06735],[0.409787,51.07088],[0.402952,51.07207],[0.40679,51.07444],[0.408267,51.07945],[0.404722,51.08281],[0.381082,51.08986],[0.364395,51.08984],[0.353587,51.08533],[0.35565,51.09359],[0.353514,51.09778],[0.360233,51.10558],[0.335907,51.10699],[0.327012,51.1128],[0.331717,51.11824],[0.325439,51.12459],[0.298611,51.1199],[0.273582,51.12174],[0.270466,51.11859],[0.275329,51.11423],[0.267071,51.11586],[0.257114,51.11464],[0.245079,51.11658],[0.226494,51.12615],[0.218803,51.12216],[0.20966,51.12266],[0.199116,51.11862],[0.172471,51.11713],[0.16127,51.11867],[0.153273,51.12417],[0.153451,51.13372],[0.161806,51.13601],[0.163377,51.14098],[0.139466,51.14741],[0.122561,51.14781],[0.090453,51.14205],[0.084542,51.14237],[0.076794,51.14067],[0.05211188419226453,51.143076246217646],[0.056475,51.14943],[0.052876,51.15251],[0.047924,51.17035],[0.054202,51.18109],[0.048513,51.18753],[0.049175,51.19274],[0.044178,51.19435],[0.040405,51.19975],[0.036232,51.21419],[0.042467,51.2156],[0.044454,51.22813],[0.054481,51.23584],[0.059897,51.24805],[0.048076,51.27408],[0.049822,51.28596],[0.04425,51.293],[0.04454294388953315,51.29404111245177],[0.08435,51.29582],[0.079825,51.30516],[0.082713,51.31796],[0.117089,51.33374],[0.114773,51.34106],[0.118216,51.34512],[0.13414,51.34809],[0.139816,51.35291],[0.148869,51.37694],[0.144832,51.39363],[0.155788,51.39538],[0.145684,51.4078],[0.15258,51.42755],[0.155575,51.43146],[0.163087,51.42993],[0.172016,51.44369],[0.176295,51.44248],[0.1837,51.44702],[0.192872,51.45208],[0.198757,51.45556],[0.207369,51.46457],[0.209372,51.47716],[0.2202187953196798,51.48164656557372],[0.24491448856551779,51.47140429659193],[0.246378,51.47062],[0.271518,51.45973],[0.27278796621164764,51.45984407624631],[0.27803,51.45767],[0.288068,51.45899],[0.305832,51.4701],[0.319437,51.46897],[0.331675,51.4543],[0.338923,51.45008],[0.34605092877539917,51.450414451236675],[0.346627,51.4503],[0.372161,51.4502],[0.403257,51.45153],[0.41383970649802265,51.45359518455436],[0.437599,51.45471],[0.473232,51.49557],[0.48516741057565177,51.49590892143694],[1.488337,51.44339],[1.521262,51.17739],[0.945746,50.81013],[0.8526594548767853,50.91803621979702]]]}}
