{"type":"Feature","properties":{"id":"kiribati"},"geometry":{"type":"MultiPolygon","coordinates":[[[[-180.0,-1.58287],[-179.9196,-1.858383],[-179.8651,-2.123761],[-179.8315,-2.393733],[-179.8198,-2.670861],[-179.8297,-2.93265],[-179.862,-3.206936],[-179.916,-3.474669],[-179.9966,-3.752028],[-180.0,-3.762181],[-180.0,-1.58287]]],[[[-157.6084,6.472283],[-154.7777,4.161172],[-153.9157,0.975583],[-153.4744,-0.954558],[-147.6108,-7.767803],[-147.0336,-11.15904],[-147.9922,-11.97389],[-151.0575,-13.83833],[-152.8092,-13.83083],[-155.0535,-12.48762],[-155.4397,-11.35969],[-155.43931266187465,-11.357624880131736],[-155.4393,-11.35762],[-154.9049,-8.508367],[-159.2758,-5.800506],[-167.43401191307365,-6.780337262267092],[-167.4097,-6.664586],[-175.8032,-7.689195],[-175.85254999835408,-7.759364596171132],[-176.1046,-7.641456],[-177.6431,-3.413958],[-177.453,-3.014831],[-177.2846,-2.946928],[-173.7548,-0.72975],[-173.143,0.265256],[-172.8158,0.3999],[-172.4935,0.494858],[-172.1498,0.558539],[-171.7923,0.585878],[-162.7424,2.293267],[-162.1873,3.935003],[-160.5898,6.154125],[-157.6084,6.472283]]],[[[167.86936356469525,-3.7706713255936704],[168.2775412549027,-0.40149939056121997],[168.5602,1.777314],[170.0787,2.009286],[170.8327,4.259864],[175.5110622023659,5.6119737665341765],[175.8179,5.204475],[180.0,-1.58287],[180.0,-3.762181],[167.86936356469525,-3.7706713255936704]]]]}}
