{"type":"Feature","properties":{"id":"mecklenburg-vorpommern"},"geometry":{"type":"MultiPolygon","coordinates":[[[[11.93115,54.42373],[12.26383,54.60534],[12.92131,54.88071],[13.24175,54.9837],[14.0791,54.76026],[14.29761,54.18108],[14.23244,53.92739],[14.21562,53.91587],[14.21692,53.9105],[14.21655,53.91019],[14.21939,53.90032],[14.22724,53.86794],[14.28713,53.76589],[14.27484,53.72688],[14.27935,53.69862],[14.29,53.68061],[14.28143,53.66715],[14.29,53.66118],[14.29149,53.63644],[14.32318,53.62096],[14.3228,53.56289],[14.31647,53.54828],[14.32616,53.53476],[14.33958,53.50662],[14.35896,53.49598],[14.36958,53.46226],[14.38421,53.45521],[14.38502,53.45387],[14.38513,53.45359],[14.38263,53.42718],[14.415445332540667,53.35625897343856],[14.2986,53.33056],[14.23791,53.28689],[14.14624,53.29059],[14.26144,53.3764],[14.24782,53.45392],[14.11899,53.46498],[14.07191,53.44876],[13.9468,53.46056],[13.90964,53.51731],[13.82788,53.57546],[13.75851,53.5784],[13.72259,53.52541],[13.50952,53.4185],[13.44759,53.32168],[13.08835,53.2617],[13.01279,53.215],[12.8022,53.23205],[12.69939,53.27319],[12.5111,53.28578],[12.24972,53.37972],[12.01065,53.38859],[11.97348,53.32612],[11.75547,53.25503],[11.70096,53.27282],[11.50524,53.22909],[11.50772,53.16304],[11.25006,53.15041],[11.241237933705841,53.13150799400848],[11.22545,53.13925],[11.18597,53.13174],[11.17584,53.13689],[11.16692,53.15748],[11.18751,53.18012],[11.13533,53.18855],[11.07319,53.2194],[11.00332,53.28112],[10.9877,53.3197],[10.92573,53.33702],[10.83801,53.30134],[10.78806,53.31508],[10.75424,53.32862],[10.73639,53.34082],[10.72317,53.3569],[10.69811,53.36879],[10.6794,53.36582],[10.6279,53.36848],[10.60269226299919,53.36387893929209],[10.6212,53.38282],[10.63786,53.4484],[10.69365,53.45198],[10.8308,53.51276],[10.83921,53.5605],[10.9156,53.56713],[10.93088,53.58639],[10.95852,53.64698],[10.95852,53.66885],[10.93019,53.70148],[10.88539,53.71053],[10.85586,53.70961],[10.81793,53.72658],[10.81364,53.74485],[10.76849,53.75632],[10.77656,53.7757],[10.78016,53.79741],[10.75441,53.84149],[10.88779,53.91728],[10.89998,53.89443],[10.94822,53.89453],[10.97225,53.90666],[10.96899,53.91597],[10.91217,53.93032],[10.9132,53.9578],[11.12778,54.08155],[11.79931,54.30851],[11.73021456486384,54.38185436552725],[11.87346,54.44185],[11.93115,54.42373]]],[[[14.42292,53.32761],[14.422917953499661,53.32760942674387],[14.42177,53.34259],[14.42292,53.32761]]]]}}
