{"type":"Feature","properties":{"id":"queensland"},"geometry":{"type":"Polygon","coordinates":[[[140.92032391856858,-9.48623969646819],[140.9779,-9.495116],[140.97986347025756,-9.480130463266601],[141.5005,-9.426709],[142.0549,-9.48081],[142.0521,-9.231486],[142.1902,-9.166416],[142.3378,-9.234197],[142.552,-9.35346],[142.8651,-9.308742],[142.8514,-9.491646],[143.2963,-9.421205],[144.1026,-8.846906],[144.1406,-8.841629],[146.9258245587051,-15.488674426806664],[147.2295,-17.29661],[148.3714,-18.86705],[149.34493448011506,-18.97711327581776],[151.59277427175243,-20.00139261351139],[152.0643,-20.4229],[152.67036492313824,-20.492421308177523],[152.7978,-20.55049],[153.1830508574102,-21.894101598021322],[153.1576,-22.36819],[153.39924802164353,-22.720174255381174],[154.2005,-27.88593],[153.535,-28.18158],[153.4785,-28.16152],[153.4572,-28.18043],[153.4571,-28.18054],[153.457,-28.1806],[153.3923,-28.23804],[153.3577,-28.2535],[153.3405,-28.24995],[153.3396,-28.25031],[153.3383,-28.24949],[153.2804,-28.23758],[153.2315,-28.26906],[153.1802,-28.25107],[153.1726,-28.29578],[153.1284,-28.32135],[153.1339,-28.33243],[153.1097,-28.36142],[152.9712,-28.33659],[152.9331,-28.3422],[152.8589,-28.31553],[152.8331,-28.32444],[152.8066,-28.35694],[152.7765,-28.35062],[152.7527,-28.36964],[152.6766,-28.33353],[152.6642,-28.3154],[152.6309,-28.31247],[152.6128,-28.27809],[152.5987,-28.3173],[152.5792,-28.34287],[152.522,-28.30791],[152.5306,-28.26684],[152.5084,-28.25348],[152.4658,-28.26281],[152.4479,-28.30168],[152.4175,-28.30282],[152.4214,-28.33473],[152.3881,-28.3721],[152.3129,-28.36739],[152.2899,-28.39336],[152.2746,-28.40333],[152.2196,-28.45259],[152.1625,-28.4368],[152.1229,-28.46628],[152.0728,-28.48318],[152.0185,-28.52897],[151.9865,-28.52893],[151.9793,-28.50769],[151.9603,-28.52022],[151.9625,-28.56281],[151.9898,-28.57982],[152.0134,-28.65788],[152.0449,-28.66499],[152.0534,-28.67719],[152.0676,-28.67863],[152.0805,-28.70794],[152.0534,-28.7344],[152.0412,-28.75787],[152.0431,-28.77894],[152.0416,-28.82027],[152.0217,-28.84911],[152.0397,-28.8487],[152.0426,-28.86498],[152.0126,-28.91068],[151.9612,-28.91934],[151.9429,-28.92193],[151.9324,-28.92392],[151.9276,-28.92554],[151.9229,-28.92903],[151.9151,-28.93001],[151.9148,-28.9237],[151.8508,-28.91161],[151.8349,-28.96298],[151.8155,-28.96469],[151.805,-28.94965],[151.7776,-28.96381],[151.7707,-28.95592],[151.7702,-28.95585],[151.7703,-28.95552],[151.7393,-28.92013],[151.7292,-28.8741],[151.7094,-28.87675],[151.6955,-28.88746],[151.6957,-28.88841],[151.694,-28.88861],[151.6761,-28.90761],[151.6369,-28.93267],[151.6112,-28.9276],[151.5791,-28.94645],[151.5533,-28.96039],[151.538,-28.98477],[151.5022,-29.02176],[151.495,-29.05563],[151.5039,-29.06628],[151.5065,-29.07202],[151.4551,-29.12255],[151.4545,-29.12344],[151.4542,-29.12444],[151.4532,-29.12544],[151.4527,-29.12625],[151.4516,-29.12743],[151.4493,-29.12916],[151.4482,-29.13028],[151.4475,-29.13086],[151.4462,-29.13169],[151.445,-29.13247],[151.3947,-29.18192],[151.3375,-29.1831],[151.308,-29.1639],[151.2765,-29.10395],[151.2707,-29.07613],[151.2856,-29.05283],[151.2672,-29.03076],[151.2762,-29.00033],[151.2629,-28.93996],[151.2076,-28.9033],[151.197,-28.88767],[151.1692,-28.88234],[151.0998,-28.84708],[151.0371,-28.85104],[151.0345,-28.82068],[151.0377,-28.80166],[151.0201,-28.79524],[151.0157,-28.76314],[151.0067,-28.74443],[150.954,-28.73769],[150.9362,-28.73467],[150.9267,-28.70708],[150.9007,-28.69735],[150.8722,-28.69796],[150.7494,-28.6387],[150.6829,-28.66537],[150.6693,-28.65823],[150.6327,-28.68101],[150.6,-28.67343],[150.5805,-28.6599],[150.5509,-28.67554],[150.5306,-28.67319],[150.4795,-28.66717],[150.4592,-28.66978],[150.4405,-28.66794],[150.4109,-28.65448],[150.4109,-28.63823],[150.3877,-28.6352],[150.3692,-28.62145],[150.3659,-28.61225],[150.3625,-28.60773],[150.3632,-28.60238],[150.3588,-28.59191],[150.3506,-28.58867],[150.3449,-28.57905],[150.3275,-28.57192],[150.3002,-28.54926],[150.2903,-28.54117],[150.2132,-28.57821],[150.1844,-28.57654],[150.1649,-28.55941],[150.0824,-28.58762],[150.0199,-28.59008],[149.9783,-28.61742],[149.9418,-28.62098],[149.9153,-28.6137],[149.8979,-28.62609],[149.834,-28.60785],[149.8201,-28.62074],[149.8081,-28.61152],[149.7044,-28.63784],[149.6641,-28.63534],[149.6398,-28.60444],[149.6085,-28.6044],[149.5862,-28.57828],[149.5535,-28.58064],[149.5532,-28.58084],[149.5528,-28.58087],[149.5526,-28.58071],[149.4962,-28.58479],[149.4461,-28.61566],[149.4323,-28.64907],[149.39,-28.69946],[149.3576,-28.69193],[149.3205,-28.7174],[149.2986,-28.71427],[149.2875,-28.7338],[149.2719,-28.74647],[149.2484,-28.74543],[149.227,-28.76801],[149.1979,-28.77499],[149.1818,-28.80622],[149.1606,-28.81045],[149.1605,-28.81066],[149.1603,-28.81079],[149.16,-28.81085],[149.1598,-28.81078],[149.1596,-28.8107],[149.1596,-28.81067],[149.1302,-28.83888],[149.0909,-28.84115],[149.0598,-28.91126],[149.0374,-28.95513],[149.0062,-28.9673],[148.9995,-28.9718],[148.9973,-28.97308],[148.9946,-28.9733],[148.992,-28.97233],[148.9913,-28.97597],[148.9893,-28.97642],[148.9865,-28.97503],[148.983,-28.97773],[148.9771,-28.97706],[148.968,-28.99129],[148.9581,-29.00299],[141.00392417892786,-29.002350572704774],[141.0019,-25.99303],[138.00159831938768,-25.993584935574873],[137.9992,-16.52501],[140.4241,-13.4467],[139.27748134991384,-12.506401807730265],[140.2225,-9.557842],[140.92032391856858,-9.48623969646819]]]}}
