{"type":"Feature","properties":{"id":"scotland"},"geometry":{"type":"Polygon","coordinates":[[[-1.637515,61.13564],[-0.278429,61.10327],[0.216055,60.77616],[0.097816,59.42198],[0.160649,59.09779],[-1.203008,55.90612],[-1.268503842916134,55.898514771362734],[-1.472307,56.06997],[-1.800863,55.89366],[-1.971566,55.8473],[-2.046979,55.808],[-2.062375310038851,55.803294231257716],[-2.064232,55.80273],[-2.0642439901741745,55.802723082940496],[-2.087811,55.79552],[-2.091515,55.78718],[-2.089147,55.76551],[-2.109451,55.76216],[-2.112516,55.75716],[-2.10918,55.75072],[-2.117777,55.74974],[-2.1213722192671107,55.74194138942534],[-2.121374,55.74194],[-2.121986,55.74061],[-2.122989,55.74068],[-2.1229908941773554,55.74067852047159],[-2.145011,55.74218],[-2.15236,55.73665],[-2.15222,55.72567],[-2.1646896295436893,55.7235307429065],[-2.164713,55.72353],[-2.166879010935925,55.72315513835006],[-2.178392,55.72118],[-2.179694,55.71505],[-2.172833,55.70756],[-2.185741,55.70407],[-2.220769,55.67803],[-2.220146,55.66676],[-2.225305027905939,55.664593069025315],[-2.225317,55.66459],[-2.2277472092194706,55.66356728695347],[-2.250525,55.654],[-2.248839,55.64775],[-2.2470708168119633,55.64715003754495],[-2.247071,55.64715],[-2.236402,55.64353],[-2.255824,55.64542],[-2.2558290025374674,55.64541963629789],[-2.304461,55.65015],[-2.326526,55.6456],[-2.328848,55.63878],[-2.337765,55.63575],[-2.338431,55.63029],[-2.328929,55.62448],[-2.3239816866688736,55.624752467455544],[-2.323978,55.62475],[-2.311861,55.62542],[-2.317605,55.62052],[-2.3176021672659894,55.62051810835792],[-2.3189,55.61941],[-2.308851,55.60855],[-2.291563,55.60003],[-2.295369,55.58548],[-2.290733,55.578],[-2.24365,55.55355],[-2.240657,55.55004],[-2.2406527298690686,55.55003675139556],[-2.237388,55.54621],[-2.236025,55.52857],[-2.228618738881916,55.52330324443128],[-2.228619,55.5233],[-2.227897,55.52279],[-2.23158,55.5083],[-2.205845,55.48816],[-2.209298,55.48101],[-2.203539,55.47324],[-2.2003439072775186,55.47279253567062],[-2.200341,55.47279],[-2.174406,55.46916],[-2.190192,55.46395],[-2.1901887341351784,55.463947150355914],[-2.191482,55.46352],[-2.196718,55.44697],[-2.205554,55.44101],[-2.2282505521810245,55.43345203218572],[-2.2342512782667074,55.43221440063101],[-2.26153,55.43578],[-2.295701,55.42321],[-2.298031,55.41744],[-2.309673763228371,55.412682012055164],[-2.3193451940280942,55.410773049849546],[-2.333707,55.41259],[-2.338316,55.40953],[-2.336987,55.40482],[-2.347887,55.39987],[-2.338431,55.3909],[-2.336889,55.38104],[-2.348705,55.37475],[-2.344405,55.36789],[-2.381501,55.35211],[-2.394566628861879,55.35109460406719],[-2.3971537159314353,55.35182312236445],[-2.400644,55.35698],[-2.414746,55.36191],[-2.437800488851294,55.360319801360674],[-2.437804,55.36032],[-2.448816,55.35956],[-2.448816010976011,55.359559998425674],[-2.475927,55.35769],[-2.492481,55.35298],[-2.52143,55.32581],[-2.560363,55.32052],[-2.5608433494378176,55.31462110166501],[-2.560844,55.31462],[-2.561012,55.31255],[-2.571718839115604,55.303223269559716],[-2.571739,55.30321],[-2.57659,55.29898],[-2.589909,55.29383],[-2.589931161126011,55.29381910673447],[-2.610997,55.28567],[-2.630564,55.26976],[-2.629787,55.26475],[-2.648894,55.26215],[-2.648444,55.25729],[-2.629581,55.24809],[-2.635765,55.24094],[-2.637974,55.22581],[-2.668399,55.22412],[-2.70538,55.17587],[-2.733677,55.17007],[-2.7673320365748015,55.15407107611753],[-2.8004530545598403,55.1434176092687],[-2.826917,55.14095],[-2.835858,55.13348],[-2.830967,55.12602],[-2.842971,55.12495],[-2.853829,55.11138],[-2.872763,55.10857],[-2.876364,55.09985],[-2.886786,55.09792],[-2.88886,55.09082],[-2.895339,55.09005],[-2.898709,55.0805],[-2.915565,55.08183],[-2.927035,55.07345],[-2.940354,55.07257],[-2.945404,55.06834],[-2.944456,55.06107],[-2.96025,55.05259],[-3.027488,55.05827],[-3.052661,55.05526],[-3.055626,55.04525],[-3.032999,55.03562],[-3.0342461581151774,55.03149499694206],[-3.035723,55.03059],[-3.0347877541925072,55.02970365593407],[-3.035711,55.02665],[-3.042398,55.02458],[-3.052257,55.01054],[-3.049427,55.00016],[-3.060613,54.9889],[-3.074122,54.98336],[-3.07448590622876,54.972161442341765],[-3.077074376306311,54.97167090273509],[-3.101799,54.97409],[-3.1018083795617213,54.97408749840103],[-3.120971,54.97596],[-3.1348307236993174,54.96510770155817],[-3.163976,54.96047],[-3.180075,54.96517],[-3.190267153438943,54.96361005195443],[-3.199897,54.96632],[-3.260233,54.96284],[-3.29358392508022,54.96594579070862],[-3.307034,54.97026],[-3.315208710370731,54.96538156220957],[-3.398762,54.96136],[-3.8292765714676062,54.70044770990798],[-4.084095318652636,54.64211462212212],[-4.096475,54.6706],[-4.722574099108415,54.58312661269597],[-5.219455839637967,54.69444765820499],[-5.431093,54.99403],[-6.063212,55.37104],[-7.370785,56.09785],[-10.42441,56.69324],[-11.860235855506291,56.75996576573956],[-14.86155,57.4994],[-6.171657,60.00603],[-1.637515,61.13564]]]}}
