{"type":"Feature","properties":{"id":"south-america"},"geometry":{"type":"MultiPolygon","coordinates":[[[[-115.835181,8.388247],[-100.088114,2.892689],[-95.00992964606041,3.284102418660558],[-82.19674450930565,3.2977721093697494],[-79.33456569897236,1.533939766198806],[-93.56487,2.843487],[-93.33519,-2.887373],[-85.75169010710465,-3.7074362718704252],[-79.93896,-19.68055],[-73.78941,-20.30552],[-71.45974826859386,-18.976380897485544],[-73.58078,-20.67947],[-113.2233,-26.13435],[-77.05557,-54.52076],[-67.2138,-58.45195],[-65.5141,-56.43137],[-65.59592759752732,-55.252236806792425],[-61.52546,-55.68296],[-64.31743,-49.44788],[-55.755046589856256,-36.10146566770326],[-55.51942,-36.2487],[-52.7723,-34.11526],[-52.90722694173205,-34.03078962221388],[-50.75007,-34.86424],[-44.2463,-27.39643],[-47.7481871164332,-25.495723301799423],[-32.63539,-25.015],[-29.00059,-22.95946],[-28.19195,-20.13629],[-38.063492468304496,-18.549416563152075],[-28.420281466614146,-1.4312876034575015],[-23.24401,-60.30883],[-122.961875,-60.216318],[-119.57609745649467,-27.623394049715035],[-118.8062,-27.66403],[-118.3448,-22.83691],[-119.07250256963047,-22.775577074615118],[-115.835181,8.388247]],[[-56.44453,-50.67405],[-62.20142,-50.67405],[-62.20142,-53.40604],[-56.44453,-53.40604],[-56.44453,-50.67405]]],[[[-44.91841,10.14225],[-28.72472,2.031551],[-29.3325,2.335959],[-30.9223,2.673015],[-45.53069920125903,-0.15574127928774203],[-42.87915,5.208002],[-43.48209,5.335832],[-51.0112,5.522895],[-51.213267951441516,5.249271087755619],[-53.63919046334689,6.319219261146324],[-53.32819,6.874677],[-56.5033,7.761698],[-56.65916474032571,7.31234413129489],[-58.7443,9.182536],[-59.59828078035619,8.753975879983816],[-60.88288,9.775124],[-61.11546954241573,9.86061528821273],[-60.969631,9.869484],[-60.93977949337147,9.89368016274495],[-44.91841,10.14225]]],[[[-61.78250315673689,11.66702753898651],[-61.74813930605291,10.987192119372459],[-62.11383,11.67884],[-62.7652,11.70207],[-61.78250315673689,11.66702753898651]]],[[[-57.137456782589716,5.869088398573704],[-57.1520719891047,5.684810583401596],[-57.16324,5.773477],[-57.137456782589716,5.869088398573704]]],[[[-71.12276,12.6515],[-71.15659964927958,12.573737466814913],[-72.04869479212654,13.075129899913742],[-71.93361,13.13889],[-71.11599337063222,12.65638538839898],[-71.12276,12.6515]]],[[[-68.8900804838813,11.779392036612204],[-68.94484,11.79412],[-68.97286196012071,11.819878682881539],[-68.8900804838813,11.779392036612204]]],[[[-68.02062,11.69765],[-68.58218,11.69658],[-68.85738542507356,11.770598466777905],[-68.02009237871628,11.762700556755817],[-68.02062,11.69765]]]]}}
