{"type":"Feature","properties":{"id":"sulawesi"},"geometry":{"type":"Polygon","coordinates":[[[125.1379,4.787087],[125.7361,5.262461],[126.6208,5.948258],[127.275,5.058812],[127.3977,4.953185],[127.6501,4.609284],[127.87576333934577,3.668131222409581],[127.738,3.727232],[125.8649,1.82068],[125.4666,0.955769],[125.4446,0.285646],[123.8928,-1.439055],[124.0425,-1.833029],[124.2059,-2.284545],[124.3762,-2.619321],[124.8431,-2.844285],[124.8047,-3.732697],[125.3979,-4.872037],[125.4584,-6.727345],[125.46016083418769,-6.828981062201802],[122.3712,-7.03547],[122.3492,-8.004831],[119.0698,-7.977632],[116.7187,-8.02115],[116.29677318297762,-7.617863329592993],[116.4304,-7.623884],[116.5814,-5.304294],[116.40070518286579,-5.266376438686917],[116.4551,-4.423085],[117.3889,-3.897133],[117.7954,-2.454688],[119.6576,1.834409],[124.0301,1.768523],[125.0034,4.773235],[125.1379,4.787087]]]}}
