{"type":"Feature","properties":{"id":"tuvalu"},"geometry":{"type":"MultiPolygon","coordinates":[[[[-180.0,-4.061646],[-179.8384,-4.290769],[-179.6953,-4.534642],[-179.3382,-4.765292],[-179.0058,-5.043636],[-178.7139,-5.355933],[-178.4695,-5.693292],[-178.2627,-6.070506],[-178.1018,-6.482667],[-177.3773,-7.470233],[-177.1051,-7.932983],[-176.9779,-8.225139],[-176.8784,-8.528072],[-176.8085,-8.834928],[-176.77742935250788,-9.074428688419932],[-176.79379623609634,-9.09770037332948],[-176.8579,-9.05868],[-179.978,-12.57599],[-179.96390189769923,-12.914402216791071],[-180.0,-12.93801],[-180.0,-4.061646]]],[[[179.5351,-13.24039],[174.9439,-9.784925],[172.9953,-4.292519],[177.2828,-4.361697],[180.0,-4.061646],[180.0,-12.93801],[179.5351,-13.24039]]]]}}
